Descriptor ID,Record ID,recordID,recordID_new,NAME,NAME_new,ADDR1,ADDR1_new,ADDR2,ADDR2_new,STATE,STATE_new,SAVINGS_ACCOUNT,SAVINGS_ACCOUNT_new,SS_NUM,SS_NUM_new,ZIP,ZIP_new,SystemTimestamp,SystemTimestamp_new,ruleID,ruleID_new
ES_CHANGE_ME,1,1,,Keum T Shaw JR,,880 Howard Hills Dr,,,,AL,,YES,,645339658,,36005,,2015-02-05 16:48:56.0,,AddressExists,
,2,10,,Harley F Colasanto,,5 Washington Dr,,,,AL,,NO,,578623168,,36079,,2015-02-05 16:48:56.0,,AddressExists,
,3,101,,Tami H Fairbee,,5812 Deer Trl,,,,FL,,,NO,720234847,,55552,,2015-02-05 16:48:56.0,,FieldExists,
,4,101,,Tami H Fairbee,,5812 Deer Trl,,,,FL,,,NO,720234847,,55552,,2015-02-05 16:48:56.0,,AddressExists,
,5,103,,Simon J Frampton,,4608 Highway 467,,,,FL,,,NO,542081808,,28884,,2015-02-05 16:48:56.0,,FieldExists,
,6,103,,Simon J Frampton,,4608 Highway 467,,,,FL,,,NO,542081808,,28884,,2015-02-05 16:48:56.0,,AddressExists,
,7,105,,Sari T Kern,,Camp Mineola Rd,,,,FL,,,NO,636149008,,22018,,2015-02-05 16:48:56.0,,FieldExists,
,8,105,,Sari T Kern,,Camp Mineola Rd,,,,FL,,,NO,636149008,,22018,,2015-02-05 16:48:56.0,,AddressExists,
,9,107,,Prof. Mukesh J Gerzon,,982 E 50th St,,,,FL,,,NO,463252327,,62818,,2015-02-05 16:48:56.0,,FieldExists,
,10,107,,Prof. Mukesh J Gerzon,,982 E 50th St,,,,FL,,,NO,463252327,,62818,,2015-02-05 16:48:56.0,,AddressExists,
,11,109,,Gasper Rountree,,1607  Bonita Ave,,,,TX,,,NO,674318714,,81959,,2015-02-05 16:48:56.0,,FieldExists,
,12,109,,Gasper Rountree,,1607  Bonita Ave,,,,TX,,,NO,674318714,,81959,,2015-02-05 16:48:56.0,,AddressExists,
,13,111,,Mickey E Yee,,28 Drake Rd,,,,TX,,,NO,620055009,,88919,,2015-02-05 16:48:56.0,,FieldExists,
,14,111,,Mickey E Yee,,28 Drake Rd,,,,TX,,,NO,620055009,,88919,,2015-02-05 16:48:56.0,,AddressExists,
,15,113,,Erik K Abalos,,11862 Paseo Anastasia HWY APT 6,,,,TX,,,NO,581020049,,58121,,2015-02-05 16:48:56.0,,FieldExists,
,16,113,,Erik K Abalos,,11862 Paseo Anastasia HWY APT 6,,,,TX,,,NO,581020049,,58121,,2015-02-05 16:48:56.0,,AddressExists,
,17,115,,Cleatus Z Worn,,907 W Moore St,,,,TX,,,NO,708385403,,92898,,2015-02-05 16:48:56.0,,FieldExists,
,18,115,,Cleatus Z Worn,,907 W Moore St,,,,TX,,,NO,708385403,,92898,,2015-02-05 16:48:56.0,,AddressExists,
,19,117,,Leah Economou,,RT 3 BOX 232,,,,AL,,NO,,744868371,,36005,,2015-02-05 16:48:56.0,,AddressExists,
,20,119,,Monique Spatz,,1159 N 61st Ave,,,,AL,,NO,,590031489,,36005,,2015-02-05 16:48:56.0,,AddressExists,
,21,12,,Lanita LaRoche,,Babcock Rd,,,,AL,,NO,,418328012,,36111,,2015-02-05 16:48:56.0,,AddressExists,
,22,120,,Carrie F Sandahl,,1305 White Oak Dr,,,,AL,,NO,,430524177,,36035,,2015-02-05 16:48:56.0,,AddressExists,
,23,122,,Mindy Melanson,,270 W Maude St,,,,AL,,NO,,424369089,,36052,,2015-02-05 16:48:56.0,,AddressExists,
,24,124,,Joan J Trenter,,4858 S 95th Plz,,,,AL,,YES,,417361629,,36111,,2015-02-05 16:48:56.0,,AddressExists,
,25,126,,Joshua N Walock,,RR 3,,,,AL,,YES,,741788105,,36110,,2015-02-05 16:48:56.0,,AddressExists,
,26,128,,Royce F Barlow,,319 9th St,,,,AL,,NO,,666177407,,36111,,2015-02-05 16:48:56.0,,AddressExists,
,27,130,,Olaf Z Esquivel,,1487 Hickory Dr SW,,,,AL,,NO,,503387373,,36081,,2015-02-05 16:48:56.0,,AddressExists,
,28,132,,Luther Marx-Messerschmidt,,200 E Harlem Ave,,,,AL,,NO,,423546818,,36081,,2015-02-05 16:48:56.0,,AddressExists,
,29,134,,Harland M Livesay,,1758 W 51st St,,,,AL,,NO,,461586133,,36081,,2015-02-05 16:48:56.0,,AddressExists,
,30,136,,Kristin G Christensen,,7533 Cowman Rd,,,,AL,,YES,,484708807,,36081,,2015-02-05 16:48:56.0,,AddressExists,
,31,138,,Vaughn C Houpt,,67 Crest Dr,,,,AL,,YES,,402817087,,36081,,2015-02-05 16:48:56.0,,AddressExists,
,32,14,,Shawn Herring,,920 Sproat Ave,,,,AL,,YES,,755806520,,36069,,2015-02-05 16:48:56.0,,AddressExists,
,33,140,,Garry G Dundore,,3610 11th Ave,,,,AL,,YES,,705756660,,36079,,2015-02-05 16:48:56.0,,AddressExists,
,34,142,,Ming Q Alulema,,335 N 2800 E,,,,LA,,,NO,522441283,,73333,,2015-02-05 16:48:56.0,,FieldExists,
,35,142,,Ming Q Alulema,,335 N 2800 E,,,,LA,,,NO,522441283,,73333,,2015-02-05 16:48:56.0,,AddressExists,
,36,144,,Velva G Marak,,4355 El Camino Rd,,,,LA,,,NO,610871037,,40324,,2015-02-05 16:48:56.0,,FieldExists,
,37,144,,Velva G Marak,,4355 El Camino Rd,,,,LA,,,NO,610871037,,40324,,2015-02-05 16:48:56.0,,AddressExists,
,38,146,,Rebecca L Allard,,134 Beech St,,,,OK,,,NO,711003717,,44277,,2015-02-05 16:48:56.0,,FieldExists,
,39,146,,Rebecca L Allard,,134 Beech St,,,,OK,,,NO,711003717,,44277,,2015-02-05 16:48:56.0,,AddressExists,
,40,148,,Corky Y Seyffer,,8194 S Khalar Rd,,,,FL,,,NO,702076825,,91210,,2015-02-05 16:48:56.0,,FieldExists,
,41,148,,Corky Y Seyffer,,8194 S Khalar Rd,,,,FL,,,NO,702076825,,91210,,2015-02-05 16:48:56.0,,AddressExists,
,42,150,,Kalen A Stopford,,204-14th Hb,,,,NC,,,NO,405047661,,88000,,2015-02-05 16:48:56.0,,FieldExists,
,43,150,,Kalen A Stopford,,204-14th Hb,,,,NC,,,NO,405047661,,88000,,2015-02-05 16:48:56.0,,AddressExists,
,44,152,,Baluku B Esplan,,2101 Eilene Dr,,,,FL,,,NO,467946824,,37953,,2015-02-05 16:48:56.0,,FieldExists,
,45,152,,Baluku B Esplan,,2101 Eilene Dr,,,,FL,,,NO,467946824,,37953,,2015-02-05 16:48:56.0,,AddressExists,
,46,154,,Frederick T Paige,,330 W Ridge St,,,,FL,,,NO,688961725,,55552,,2015-02-05 16:48:56.0,,FieldExists,
,47,154,,Frederick T Paige,,330 W Ridge St,,,,FL,,,NO,688961725,,55552,,2015-02-05 16:48:56.0,,AddressExists,
,48,156,,Etta A Metheny,,9600 SE 36th Ave,,,,FL,,,NO,458774796,,55552,,2015-02-05 16:48:56.0,,FieldExists,
,49,156,,Etta A Metheny,,9600 SE 36th Ave,,,,FL,,,NO,458774796,,55552,,2015-02-05 16:48:56.0,,AddressExists,
,50,158,,Dwayne A Marquez,,10329 E 61st St,,,,FL,,,NO,403055607,,71042,,2015-02-05 16:48:56.0,,FieldExists,
,51,158,,Dwayne A Marquez,,10329 E 61st St,,,,FL,,,NO,403055607,,71042,,2015-02-05 16:48:56.0,,AddressExists,
,52,16,,Emelia H Hollings,,630 S Central St,,,,AL,,NO,,761682671,,36081,,2015-02-05 16:48:56.0,,AddressExists,
,53,161,,Hung O Gary,,45576 Adler Ln,,,,TX,,,NO,603573208,,98652,,2015-02-05 16:48:56.0,,FieldExists,
,54,161,,Hung O Gary,,45576 Adler Ln,,,,TX,,,NO,603573208,,98652,,2015-02-05 16:48:56.0,,AddressExists,
,55,163,,Frederick Xavier Webster,,2307 Gramercy St,,,,TX,,,NO,670108796,,46855,,2015-02-05 16:48:56.0,,FieldExists,
,56,163,,Frederick Xavier Webster,,2307 Gramercy St,,,,TX,,,NO,670108796,,46855,,2015-02-05 16:48:56.0,,AddressExists,
,57,165,,Truman F Wearing,,Nc 54 Hwy Byp,,,,TX,,,NO,654397219,,35715,,2015-02-05 16:48:56.0,,FieldExists,
,58,165,,Truman F Wearing,,Nc 54 Hwy Byp,,,,TX,,,NO,654397219,,35715,,2015-02-05 16:48:56.0,,AddressExists,
,59,167,,Dinesh T Hills,,101 4th St NE,,,,FL,,,NO,548612013,,94510,,2015-02-05 16:48:56.0,,FieldExists,
,60,167,,Dinesh T Hills,,101 4th St NE,,,,FL,,,NO,548612013,,94510,,2015-02-05 16:48:56.0,,AddressExists,
,61,169,,Issac T Godby,,Route 15,,,,NC,,,NO,673090081,,74895,,2015-02-05 16:48:56.0,,FieldExists,
,62,169,,Issac T Godby,,Route 15,,,,NC,,,NO,673090081,,74895,,2015-02-05 16:48:56.0,,AddressExists,
,63,171,,Deborah E Gillespie,,8513 Peachwood Dr,,,,NC,,,NO,542006880,,74840,,2015-02-05 16:48:56.0,,FieldExists,
,64,171,,Deborah E Gillespie,,8513 Peachwood Dr,,,,NC,,,NO,542006880,,74840,,2015-02-05 16:48:56.0,,AddressExists,
,65,173,,Dominique L Showers,,52 Main Dr,,,,NC,,,NO,467680507,,74539,,2015-02-05 16:48:56.0,,FieldExists,
,66,173,,Dominique L Showers,,52 Main Dr,,,,NC,,,NO,467680507,,74539,,2015-02-05 16:48:56.0,,AddressExists,
,67,175,,Dominique Y Park,,206 Albright Rd,,,,NC,,,NO,405780706,,75328,,2015-02-05 16:48:56.0,,FieldExists,
,68,175,,Dominique Y Park,,206 Albright Rd,,,,NC,,,NO,405780706,,75328,,2015-02-05 16:48:56.0,,AddressExists,
,69,177,,Mukesh U Abeskharoun,,700 Veterans Dr,,,,SC,,,NO,560487337,,64593,,2015-02-05 16:48:56.0,,FieldExists,
,70,177,,Mukesh U Abeskharoun,,700 Veterans Dr,,,,SC,,,NO,560487337,,64593,,2015-02-05 16:48:56.0,,AddressExists,
,71,179,,Seth R Deaver,,37816-a 44th Ave,,,,AL,,NO,,451362968,,36005,,2015-02-05 16:48:56.0,,AddressExists,
,72,18,,Savannah V Flaa,,2009 Highland Ave,,,,AL,,YES,,419529800,,36081,,2015-02-05 16:48:56.0,,AddressExists,
,73,181,,Debora R Mueller,,1708 N Damen Ave,,,,AL,,YES,,687433337,,36029,,2015-02-05 16:48:56.0,,AddressExists,
,74,185,,T L Jakmauh SR,,200 N Oregon St,,,,AL,,NO,,532714480,,36111,,2015-02-05 16:48:56.0,,AddressExists,
,75,187,,Palmer T Eppelsheimer,,Lindecamp Ln,,,,AL,,NO,,437864105,,36081,,2015-02-05 16:48:56.0,,AddressExists,
,76,189,,Rich Messner,,700 Saginaw Ave,,,,AL,,YES,,439820062,,36111,,2015-02-05 16:48:56.0,,AddressExists,
,77,191,,Shawn H Herring,,9201 Sproat Ave,,,,AL,,NO,,780186485,,36069,,2015-02-05 16:48:56.0,,AddressExists,
,78,193,,Rurik Q Medsker,,86 State St,,,,AL,,NO,,792300838,,36081,,2015-02-05 16:48:56.0,,AddressExists,
,79,195,,Elsa M Huff,,11147 W Ohio Ave,,,,AL,,NO,,423480005,,36081,,2015-02-05 16:48:56.0,,AddressExists,
,80,197,,Lorelei P Beehler,,Mongaup,,,,AL,,NO,,258464188,,36081,,2015-02-05 16:48:56.0,,AddressExists,
,81,199,,Juli E Walsh,,Hwy 45 N,,,,AL,,YES,,680838588,,36079,,2015-02-05 16:48:56.0,,AddressExists,
,82,200,,Angelo K Wegener,,197 Osborne Dr,,,,AL,,YES,,575411603,,36081,,2015-02-05 16:48:56.0,,AddressExists,
,83,202,,Beverley O Muir,,NE Navassa Rd,,,,AL,,YES,,418244436,,36081,,2015-02-05 16:48:56.0,,AddressExists,
,84,204,,Lorrie L Rehse,,8396 Kurthwood Rd,,,,LA,,,NO,479311037,,54749,,2015-02-05 16:48:56.0,,FieldExists,
,85,204,,Lorrie L Rehse,,8396 Kurthwood Rd,,,,LA,,,NO,479311037,,54749,,2015-02-05 16:48:56.0,,AddressExists,
,86,206,,Enar K Brumfield,,RR 1,,,,GA,,,NO,515101722,,21595,,2015-02-05 16:48:56.0,,FieldExists,
,87,206,,Enar K Brumfield,,RR 1,,,,GA,,,NO,515101722,,21595,,2015-02-05 16:48:56.0,,AddressExists,
,88,208,,Stan B Delacy,,5511 N County Rd 100 W,,,,VA,,,NO,513018705,,17464,,2015-02-05 16:48:56.0,,FieldExists,
,89,208,,Stan B Delacy,,5511 N County Rd 100 W,,,,VA,,,NO,513018705,,17464,,2015-02-05 16:48:56.0,,AddressExists,
,90,21,,Orin F Lonborg,,Cnnry Vllg Cond,,,,AL,,YES,,573788406,,36081,,2015-02-05 16:48:56.0,,AddressExists,
,91,210,,Guillermo B Tilly,,131 Trailwood Ct,,,,FL,,,NO,628422808,,92302,,2015-02-05 16:48:56.0,,FieldExists,
,92,210,,Guillermo B Tilly,,131 Trailwood Ct,,,,FL,,,NO,628422808,,92302,,2015-02-05 16:48:56.0,,AddressExists,
,93,212,,Erik H Mcdermott,,John Wallace Rd,,,,FL,,,NO,687370778,,88000,,2015-02-05 16:48:56.0,,FieldExists,
,94,212,,Erik H Mcdermott,,John Wallace Rd,,,,FL,,,NO,687370778,,88000,,2015-02-05 16:48:56.0,,AddressExists,
,95,214,,Kristal Z Martini,,51 RR,,,,FL,,,NO,491288748,,37953,,2015-02-05 16:48:56.0,,FieldExists,
,96,214,,Kristal Z Martini,,51 RR,,,,FL,,,NO,491288748,,37953,,2015-02-05 16:48:56.0,,AddressExists,
,97,216,,Tyler T Byrnes,,170 Sand Ridge Rd,,,,FL,,,NO,537447613,,55552,,2015-02-05 16:48:56.0,,FieldExists,
,98,216,,Tyler T Byrnes,,170 Sand Ridge Rd,,,,FL,,,NO,537447613,,55552,,2015-02-05 16:48:56.0,,AddressExists,
,99,218,,Davis V Sander,,102 S Oklahoma St,,,,FL,,,NO,716252742,,55552,,2015-02-05 16:48:56.0,,FieldExists,
,100,218,,Davis V Sander,,102 S Oklahoma St,,,,FL,,,NO,716252742,,55552,,2015-02-05 16:48:56.0,,AddressExists,
,101,221,,Lona Bond,,627 7th St,,,,FL,,,NO,605151264,,22018,,2015-02-05 16:48:56.0,,FieldExists,
,102,221,,Lona Bond,,627 7th St,,,,FL,,,NO,605151264,,22018,,2015-02-05 16:48:56.0,,AddressExists,
,103,223,,Virgilio E Tinguely,,6380 Val St,,,,FL,,,NO,480443326,,93750,,2015-02-05 16:48:56.0,,FieldExists,
,104,223,,Virgilio E Tinguely,,6380 Val St,,,,FL,,,NO,480443326,,93750,,2015-02-05 16:48:56.0,,AddressExists,
,105,225,,Tara I Mckown,,825 Walnut Ridge Ln,,,,TX,,,NO,780600021,,73309,,2015-02-05 16:48:56.0,,FieldExists,
,106,225,,Tara I Mckown,,825 Walnut Ridge Ln,,,,TX,,,NO,780600021,,73309,,2015-02-05 16:48:56.0,,AddressExists,
,107,227,,Nick J Aminuddin,,5167 E Seneca Lk Rd,,,,TX,,,NO,430684020,,85662,,2015-02-05 16:48:56.0,,FieldExists,
,108,227,,Nick J Aminuddin,,5167 E Seneca Lk Rd,,,,TX,,,NO,430684020,,85662,,2015-02-05 16:48:56.0,,AddressExists,
,109,229,,Herv N Mckeown,,201 Broad St,,,,TX,,,NO,734103004,,69101,,2015-02-05 16:48:56.0,,FieldExists,
,110,229,,Herv N Mckeown,,201 Broad St,,,,TX,,,NO,734103004,,69101,,2015-02-05 16:48:56.0,,AddressExists,
,111,23,,Roni E Hargitt,,14726 Glassboro Ave,,,,AL,,NO,,454700011,,36081,,2015-02-05 16:48:56.0,,AddressExists,
,112,231,,Wess Q Ova,,2328 SW 64th Ave,,,,TX,,,NO,516997212,,46593,,2015-02-05 16:48:56.0,,FieldExists,
,113,231,,Wess Q Ova,,2328 SW 64th Ave,,,,TX,,,NO,516997212,,46593,,2015-02-05 16:48:56.0,,AddressExists,
,114,233,,Haynie H Barnaby,,100 Creek View Ln,,,,NC,,,NO,450850452,,74895,,2015-02-05 16:48:56.0,,FieldExists,
,115,233,,Haynie H Barnaby,,100 Creek View Ln,,,,NC,,,NO,450850452,,74895,,2015-02-05 16:48:56.0,,AddressExists,
,116,235,,Jin A Douglas,,Off Millers Falls Rd,,,,NC,,,NO,602678065,,74539,,2015-02-05 16:48:56.0,,FieldExists,
,117,235,,Jin A Douglas,,Off Millers Falls Rd,,,,NC,,,NO,602678065,,74539,,2015-02-05 16:48:56.0,,AddressExists,
,118,237,,Joanna T Gunkel,,213 New,,,,NC,,,NO,457187341,,75291,,2015-02-05 16:48:56.0,,FieldExists,
,119,237,,Joanna T Gunkel,,213 New,,,,NC,,,NO,457187341,,75291,,2015-02-05 16:48:56.0,,AddressExists,
,120,239,,Dempster H Neese,,6651 Mason Dr,,,,SC,,,NO,787245460,,64593,,2015-02-05 16:48:56.0,,FieldExists,
,121,239,,Dempster H Neese,,6651 Mason Dr,,,,SC,,,NO,787245460,,64593,,2015-02-05 16:48:56.0,,AddressExists,
,122,241,,Seth R Deaver,,37816 44th Ave S,,,,AL,,NO,,420601048,,36005,,2015-02-05 16:48:56.0,,AddressExists,
,123,243,,Jos R Scholten,,207 S Oakland,,,,AL,,NO,,448701346,,36013,,2015-02-05 16:48:56.0,,AddressExists,
,124,245,,Mick I Landon,,3875 Teagues-South Rd,,,,AL,,NO,,403586438,,36036,,2015-02-05 16:48:56.0,,AddressExists,
,125,247,,Geodie Z Lagerwey,,560-1 2 Cypress Ave,,,,AL,,YES,,412702412,,36109,,2015-02-05 16:48:56.0,,AddressExists,
,126,249,,Florence M Lajeunesse,,3807 Roland Ave,,,,AL,,NO,,417702412,,36109,,2015-02-05 16:48:56.0,,AddressExists,
,127,25,,Uri I Poliquin,,Hc 1,,,,AL,,NO,,767107830,,36081,,2015-02-05 16:48:56.0,,AddressExists,
,128,251,,In Q Carney,,11 Mineral Park Dr,,,,AL,,YES,,569497854,,36105,,2015-02-05 16:48:56.0,,AddressExists,
,129,253,,Aldona X Droullard,,9121 140th St W,,,,AL,,NO,,629171304,,36065,,2015-02-05 16:48:56.0,,AddressExists,
,130,255,,Lonnie A Ottenweller,,6 Royal Ct,,,,AL,,NO,,111111111,,36081,,2015-02-05 16:48:56.0,,AddressExists,
,131,257,,James S Shope,,130 N State,,,,AL,,YES,,423266106,,36081,,2015-02-05 16:48:56.0,,AddressExists,
,132,259,,Renald Z Perkins,,2619 N Deerpark Dr,,,,AL,,NO,,419647275,,36081,,2015-02-05 16:48:56.0,,AddressExists,
,133,260,,Luce Z Golner,,502 W Dunbar St,,,,AL,,NO,,417529255,,36081,,2015-02-05 16:48:56.0,,AddressExists,
,134,262,,Ward O Guyette,,5950 Pacheco Pass Hwy,,,,AL,,NO,,460544210,,36079,,2015-02-05 16:48:56.0,,AddressExists,
,135,264,,Sandie M Poore,,2928 Ninta Dr,,,,AL,,YES,,604053668,,36081,,2015-02-05 16:48:56.0,,AddressExists,
,136,266,,Darcy F Goens,,2725 NW Savier St,,,,LA,,,NO,734370586,,54749,,2015-02-05 16:48:56.0,,FieldExists,
,137,266,,Darcy F Goens,,2725 NW Savier St,,,,LA,,,NO,734370586,,54749,,2015-02-05 16:48:56.0,,AddressExists,
,138,268,,Jennifer P Chilton,,2736 SE 49th St,,,,LA,,,NO,444668850,,40324,,2015-02-05 16:48:56.0,,FieldExists,
,139,268,,Jennifer P Chilton,,2736 SE 49th St,,,,LA,,,NO,444668850,,40324,,2015-02-05 16:48:56.0,,AddressExists,
,140,27,,Myles M Wood,,302 C Ave,,,,LA,,,NO,647604323,,54749,,2015-02-05 16:48:56.0,,FieldExists,
,141,27,,Myles M Wood,,302 C Ave,,,,LA,,,NO,647604323,,54749,,2015-02-05 16:48:56.0,,AddressExists,
,142,270,,Mikel E Yaggi,,500 Evergreen Dr,,,,VA,,,NO,609840654,,17464,,2015-02-05 16:48:56.0,,FieldExists,
,143,270,,Mikel E Yaggi,,500 Evergreen Dr,,,,VA,,,NO,609840654,,17464,,2015-02-05 16:48:56.0,,AddressExists,
,144,272,,Yvette R Drell,,567 Amberina Ct,,,,FL,,,NO,547717269,,31697,,2015-02-05 16:48:56.0,,FieldExists,
,145,272,,Yvette R Drell,,567 Amberina Ct,,,,FL,,,NO,547717269,,31697,,2015-02-05 16:48:56.0,,AddressExists,
,146,274,,Camelo G Gebo,,11326 Victoria Ave,,,,FL,,,NO,624112110,,88000,,2015-02-05 16:48:56.0,,FieldExists,
,147,274,,Camelo G Gebo,,11326 Victoria Ave,,,,FL,,,NO,624112110,,88000,,2015-02-05 16:48:56.0,,AddressExists,
,148,276,,Carene T Alderette,,RR 2,,,,FL,,,NO,732106076,,87754,,2015-02-05 16:48:56.0,,FieldExists,
,149,276,,Carene T Alderette,,RR 2,,,,FL,,,NO,732106076,,87754,,2015-02-05 16:48:56.0,,AddressExists,
,150,278,,Evander Z Frovarp,,6611 Rocky Mound Rd,,,,FL,,,NO,667054908,,55552,,2015-02-05 16:48:56.0,,FieldExists,
,151,278,,Evander Z Frovarp,,6611 Rocky Mound Rd,,,,FL,,,NO,667054908,,55552,,2015-02-05 16:48:56.0,,AddressExists,
,152,280,,Shelley I Bradley,,Rt 3,,,,LA,,,NO,642048351,,28884,,2015-02-05 16:48:56.0,,FieldExists,
,153,280,,Shelley I Bradley,,Rt 3,,,,LA,,,NO,642048351,,28884,,2015-02-05 16:48:56.0,,AddressExists,
,154,282,,Rolie C Swerzbin,,502 N Cedar St,,,,FL,,,NO,527060010,,62818,,2015-02-05 16:48:56.0,,FieldExists,
,155,282,,Rolie C Swerzbin,,502 N Cedar St,,,,FL,,,NO,527060010,,62818,,2015-02-05 16:48:56.0,,AddressExists,
,156,284,,Augustus B Benum,,205 Windsor Dr,,,,TX,,,NO,403685406,,19645,,2015-02-05 16:48:56.0,,FieldExists,
,157,284,,Augustus B Benum,,205 Windsor Dr,,,,TX,,,NO,403685406,,19645,,2015-02-05 16:48:56.0,,AddressExists,
,158,286,,Armond R Potochnik,,Arroyo Hondo,,,,TX,,,NO,416270108,,89251,,2015-02-05 16:48:56.0,,FieldExists,
,159,286,,Armond R Potochnik,,Arroyo Hondo,,,,TX,,,NO,416270108,,89251,,2015-02-05 16:48:56.0,,AddressExists,
,160,288,,Robert E Kuper,,1122 Arboretum Way,,,,TX,,,NO,400140438,,22303,,2015-02-05 16:48:56.0,,FieldExists,
,161,288,,Robert E Kuper,,1122 Arboretum Way,,,,TX,,,NO,400140438,,22303,,2015-02-05 16:48:56.0,,AddressExists,
,162,29,,Barbra Morel,,1905 E University Dr,,,,FL,,,NO,423039472,,55552,,2015-02-05 16:48:56.0,,FieldExists,
,163,29,,Barbra Morel,,1905 E University Dr,,,,FL,,,NO,423039472,,55552,,2015-02-05 16:48:56.0,,AddressExists,
,164,290,,Sheldon A Mangus,,23 Kendall St,,,,TX,,,NO,725706370,,22598,,2015-02-05 16:48:56.0,,FieldExists,
,165,290,,Sheldon A Mangus,,23 Kendall St,,,,TX,,,NO,725706370,,22598,,2015-02-05 16:48:56.0,,AddressExists,
,166,292,,Vikki K Todd,,10463 270th Ave,,,,NC,,,NO,573347303,,74895,,2015-02-05 16:48:56.0,,FieldExists,
,167,292,,Vikki K Todd,,10463 270th Ave,,,,NC,,,NO,573347303,,74895,,2015-02-05 16:48:56.0,,AddressExists,
,168,294,,David K Alpert,,6262 Mer Rouge Rd,,,,NC,,,NO,707153384,,72826,,2015-02-05 16:48:56.0,,FieldExists,
,169,294,,David K Alpert,,6262 Mer Rouge Rd,,,,NC,,,NO,707153384,,72826,,2015-02-05 16:48:56.0,,AddressExists,
,170,296,,Bland W Norton,,1300 County Line Rd,,,,NC,,,NO,411780867,,75328,,2015-02-05 16:48:56.0,,FieldExists,
,171,296,,Bland W Norton,,1300 County Line Rd,,,,NC,,,NO,411780867,,75328,,2015-02-05 16:48:56.0,,AddressExists,
,172,298,,Krystle K Trinidad,,7363 Cantrbry Ct,,,,SC,,,NO,606880026,,64593,,2015-02-05 16:48:56.0,,FieldExists,
,173,298,,Krystle K Trinidad,,7363 Cantrbry Ct,,,,SC,,,NO,606880026,,64593,,2015-02-05 16:48:56.0,,AddressExists,
,174,3,,Ilan J Meurer,,4363 Comanche Trl,,,,NC,,,NO,616717152,,74840,,2015-02-05 16:48:56.0,,FieldExists,
,175,3,,Ilan J Meurer,,4363 Comanche Trl,,,,NC,,,NO,616717152,,74840,,2015-02-05 16:48:56.0,,AddressExists,
,176,303,,Fee Zampieri,,231 Basswood St APT 34,,,,AL,,YES,,683064422,,36035,,2015-02-05 16:48:56.0,,AddressExists,
,177,305,,Lisbeth N Huez,,Lk Pillsbury BOX,,,,AL,,NO,,695461502,,36105,,2015-02-05 16:48:56.0,,AddressExists,
,178,307,,Parker M Winters,,362 Parkview Dr,,,,AL,,NO,,605411050,,36116,,2015-02-05 16:48:56.0,,AddressExists,
,179,309,,Alicia U Luzer,,721 Washington,,,,AL,,NO,,584004872,,36117,,2015-02-05 16:48:56.0,,AddressExists,
,180,31,,Tracy X Behrhorst,,10440 Paramount Blvd   Bl,,,,VA,,,NO,774200010,,17464,,2015-02-05 16:48:56.0,,FieldExists,
,181,31,,Tracy X Behrhorst,,10440 Paramount Blvd   Bl,,,,VA,,,NO,774200010,,17464,,2015-02-05 16:48:56.0,,AddressExists,
,182,311,,Lisbeth N Huez,,Lk Pillsbury BOX 212,,,,AL,,YES,,423208700,,36105,,2015-02-05 16:48:56.0,,AddressExists,
,183,313,,Tod Q Butler,,720 Majors St,,,,AL,,NO,,419506969,,36081,,2015-02-05 16:48:56.0,,AddressExists,
,184,315,,Launa E Flores,,1915 E Tam O Shanter St,,,,AL,,NO,,641302081,,36081,,2015-02-05 16:48:56.0,,AddressExists,
,185,317,,Joel M Saucier,,355 S Maple St,,,,AL,,YES,,687574601,,36079,,2015-02-05 16:48:56.0,,AddressExists,
,186,319,,Oral P Gorriaran,,11 Webster St,,,,AL,,NO,,420550344,,36081,,2015-02-05 16:48:56.0,,AddressExists,
,187,320,,Jonathan W Berdahl,,13874 Sagewood Dr,,,,AL,,YES,,418002860,,36081,,2015-02-05 16:48:56.0,,AddressExists,
,188,322,,Haynie G Gately,,210 E Bowman St,,,,AL,,NO,,420113345,,36081,,2015-02-05 16:48:56.0,,AddressExists,
,189,324,,Rocco D Dahle,,1219 Ben Johnston Rd,,,,AL,,YES,,605777637,,36079,,2015-02-05 16:48:56.0,,AddressExists,
,190,326,,Moody P Delia,,Cedar Grove Trailer Pk,,,,LA,,,NO,495370485,,54544,,2015-02-05 16:48:56.0,,FieldExists,
,191,326,,Moody P Delia,,Cedar Grove Trailer Pk,,,,LA,,,NO,495370485,,54544,,2015-02-05 16:48:56.0,,AddressExists,
,192,328,,Cecile W Fitts,,8009 Lasaine Ave,,,,GA,,,NO,532546087,,83376,,2015-02-05 16:48:56.0,,FieldExists,
,193,328,,Cecile W Fitts,,8009 Lasaine Ave,,,,GA,,,NO,532546087,,83376,,2015-02-05 16:48:56.0,,AddressExists,
,194,33,,Abe Z Daley,,Middle Ledge Rd,,,,FL,,,NO,771380839,,31890,,2015-02-05 16:48:56.0,,FieldExists,
,195,33,,Abe Z Daley,,Middle Ledge Rd,,,,FL,,,NO,771380839,,31890,,2015-02-05 16:48:56.0,,AddressExists,
,196,330,,Kerre Corbin,,RR 1,,,,VA,,,NO,680406620,,42383,,2015-02-05 16:48:56.0,,FieldExists,
,197,330,,Kerre Corbin,,RR 1,,,,VA,,,NO,680406620,,42383,,2015-02-05 16:48:56.0,,AddressExists,
,198,332,,Wendel S Alemayehu,,712 Senate St,,,,FL,,,NO,774600337,,21340,,2015-02-05 16:48:56.0,,FieldExists,
,199,332,,Wendel S Alemayehu,,712 Senate St,,,,FL,,,NO,774600337,,21340,,2015-02-05 16:48:56.0,,AddressExists,
,200,334,,Don Y Sayeed,,7639 S East Lake Blvd,,,,FL,,,NO,677407500,,88000,,2015-02-05 16:48:56.0,,FieldExists,
,201,334,,Don Y Sayeed,,7639 S East Lake Blvd,,,,FL,,,NO,677407500,,88000,,2015-02-05 16:48:56.0,,AddressExists,
,202,336,,Hung M Sander,,7730 Fleger Dr,,,,NC,,,NO,404900736,,74840,,2015-02-05 16:48:56.0,,FieldExists,
,203,336,,Hung M Sander,,7730 Fleger Dr,,,,NC,,,NO,404900736,,74840,,2015-02-05 16:48:56.0,,AddressExists,
,204,338,,Aurther A Hultgren,,1025 B St,,,,FL,,,NO,468464676,,55552,,2015-02-05 16:48:56.0,,FieldExists,
,205,338,,Aurther A Hultgren,,1025 B St,,,,FL,,,NO,468464676,,55552,,2015-02-05 16:48:56.0,,AddressExists,
,206,340,,Walden Y Conley,,204 Kittleson St Apt 125,,,,SC,,,NO,603368603,,95037,,2015-02-05 16:48:56.0,,FieldExists,
,207,340,,Walden Y Conley,,204 Kittleson St Apt 125,,,,SC,,,NO,603368603,,95037,,2015-02-05 16:48:56.0,,AddressExists,
,208,342,,Carolyn E Proctor,,5925 Urban St,,,,FL,,,NO,453729831,,22018,,2015-02-05 16:48:56.0,,FieldExists,
,209,342,,Carolyn E Proctor,,5925 Urban St,,,,FL,,,NO,453729831,,22018,,2015-02-05 16:48:56.0,,AddressExists,
,210,344,,Mila A Broerse,,RR 1,,,,FL,,,NO,678635530,,93750,,2015-02-05 16:48:56.0,,FieldExists,
,211,344,,Mila A Broerse,,RR 1,,,,FL,,,NO,678635530,,93750,,2015-02-05 16:48:56.0,,AddressExists,
,212,346,,Jeene C Schindler,,RR 1,,,,NC,,,NO,791090138,,72826,,2015-02-05 16:48:56.0,,FieldExists,
,213,346,,Jeene C Schindler,,RR 1,,,,NC,,,NO,791090138,,72826,,2015-02-05 16:48:56.0,,AddressExists,
,214,348,,Summer J Carlson,,4621 NW 31,,,,NC,,,NO,625485650,,74895,,2015-02-05 16:48:56.0,,FieldExists,
,215,348,,Summer J Carlson,,4621 NW 31,,,,NC,,,NO,625485650,,74895,,2015-02-05 16:48:56.0,,AddressExists,
,216,35,,Mani S Stevenson,,284-1 2 5th St SW,,,,FL,,,NO,624266435,,88000,,2015-02-05 16:48:56.0,,FieldExists,
,217,35,,Mani S Stevenson,,284-1 2 5th St SW,,,,FL,,,NO,624266435,,88000,,2015-02-05 16:48:56.0,,AddressExists,
,218,350,,Donnel von Wolfe,,1814 Jefferson St,,,,NC,,,NO,505748088,,72826,,2015-02-05 16:48:56.0,,FieldExists,
,219,350,,Donnel von Wolfe,,1814 Jefferson St,,,,NC,,,NO,505748088,,72826,,2015-02-05 16:48:56.0,,AddressExists,
,220,352,,Barbara S Hallen,,409 1st St,,,,NC,,,NO,427187540,,74539,,2015-02-05 16:48:56.0,,FieldExists,
,221,352,,Barbara S Hallen,,409 1st St,,,,NC,,,NO,427187540,,74539,,2015-02-05 16:48:56.0,,AddressExists,
,222,354,,Sanford N Alshahin,,1147 College Park Rd,,,,SC,,,NO,670013734,,85728,,2015-02-05 16:48:56.0,,FieldExists,
,223,354,,Sanford N Alshahin,,1147 College Park Rd,,,,SC,,,NO,670013734,,85728,,2015-02-05 16:48:56.0,,AddressExists,
,224,356,,Bizhan V Kuhns,,1017 Midland Ter,,,,AL,,NO,,661700888,,36005,,2015-02-05 16:48:56.0,,AddressExists,
,225,358,,Wanda Z Tysklind,,3268 Anchorage Ct,,,,AL,,YES,,566584794,,36005,,2015-02-05 16:48:56.0,,AddressExists,
,226,361,,James Shope,,130 State,,,,AL,,NO,,424369089,,36052,,2015-02-05 16:48:56.0,,AddressExists,
,227,363,,Fina E Manzi,,W4146 200th Ave,,,,AL,,YES,,697417225,,36110,,2015-02-05 16:48:56.0,,AddressExists,
,228,365,,Skipp J Jaffe,,1327 Conant Ave,,,,AL,,NO,,580550005,,36116,,2015-02-05 16:48:56.0,,AddressExists,
,229,367,,Allan X Seraj,,Hwy 1233,,,,AL,,NO,,735897070,,36111,,2015-02-05 16:48:56.0,,AddressExists,
,230,369,,J S Shope,,130 State St,,,,AL,,NO,,423266106,,36081,,2015-02-05 16:48:56.0,,AddressExists,
,231,37,,Jojeana X Averitte,,28 Television Rd,,,,FL,,,NO,531610383,,37953,,2015-02-05 16:48:56.0,,FieldExists,
,232,37,,Jojeana X Averitte,,28 Television Rd,,,,FL,,,NO,531610383,,37953,,2015-02-05 16:48:56.0,,AddressExists,
,233,371,,Nanette Q Barrette,,RR 1 Box 28,,,,AL,,NO,,420137691,,36079,,2015-02-05 16:48:56.0,,AddressExists,
,234,373,,Darwin Terry Barrus,,RR 1,,,,AL,,YES,,454562860,,36081,,2015-02-05 16:48:56.0,,AddressExists,
,235,375,,John B Schartow,,201 Hycliff St,,,,AL,,NO,,420180834,,36081,,2015-02-05 16:48:56.0,,AddressExists,
,236,377,,Tami X Speer,,1235-23d,,,,AL,,NO,,424104497,,36079,,2015-02-05 16:48:56.0,,AddressExists,
,237,379,,Joel M Saucier,,355 S Maple St,,,,AL,,YES,,419525650,,36081,,2015-02-05 16:48:56.0,,AddressExists,
,238,381,,Dalal P Moore,,8610 Charing Cross Ln,,,,LA,,,NO,586018405,,73333,,2015-02-05 16:48:56.0,,FieldExists,
,239,381,,Dalal P Moore,,8610 Charing Cross Ln,,,,LA,,,NO,586018405,,73333,,2015-02-05 16:48:56.0,,AddressExists,
,240,383,,Briggs E Durham,,101 Hwy 78,,,,LA,,,NO,623181487,,40324,,2015-02-05 16:48:56.0,,FieldExists,
,241,383,,Briggs E Durham,,101 Hwy 78,,,,LA,,,NO,623181487,,40324,,2015-02-05 16:48:56.0,,AddressExists,
,242,385,,Jake S Zeis,,976 County Road 500,,,,OK,,,NO,753747160,,90740,,2015-02-05 16:48:56.0,,FieldExists,
,243,385,,Jake S Zeis,,976 County Road 500,,,,OK,,,NO,753747160,,90740,,2015-02-05 16:48:56.0,,AddressExists,
,244,387,,Lawrence X Borre,,670 E Main,,,,VA,,,NO,796339302,,40513,,2015-02-05 16:48:56.0,,FieldExists,
,245,387,,Lawrence X Borre,,670 E Main,,,,VA,,,NO,796339302,,40513,,2015-02-05 16:48:56.0,,AddressExists,
,246,389,,Jody E Arcangel,,8635 Wilshire Blvd,,,,FL,,,NO,558029646,,88000,,2015-02-05 16:48:56.0,,FieldExists,
,247,389,,Jody E Arcangel,,8635 Wilshire Blvd,,,,FL,,,NO,558029646,,88000,,2015-02-05 16:48:56.0,,AddressExists,
,248,39,,Arve I Rice,,Dundee Rd,,,,TX,,,NO,665100774,,88919,,2015-02-05 16:48:56.0,,FieldExists,
,249,39,,Arve I Rice,,Dundee Rd,,,,TX,,,NO,665100774,,88919,,2015-02-05 16:48:56.0,,AddressExists,
,250,391,,Wendell I Eckels,,11 Doe Run,,,,FL,,,NO,615498543,,37953,,2015-02-05 16:48:56.0,,FieldExists,
,251,391,,Wendell I Eckels,,11 Doe Run,,,,FL,,,NO,615498543,,37953,,2015-02-05 16:48:56.0,,AddressExists,
,252,393,,Veronica Q Nock,,212 Smith St,,,,FL,,,NO,501475565,,55552,,2015-02-05 16:48:56.0,,FieldExists,
,253,393,,Veronica Q Nock,,212 Smith St,,,,FL,,,NO,501475565,,55552,,2015-02-05 16:48:56.0,,AddressExists,
,254,395,,Maxwell G Schweda,,173 Uncas Ave,,,,FL,,,NO,437206205,,95120,,2015-02-05 16:48:56.0,,FieldExists,
,255,395,,Maxwell G Schweda,,173 Uncas Ave,,,,FL,,,NO,437206205,,95120,,2015-02-05 16:48:56.0,,AddressExists,
,256,397,,Wilhelm I Mckinley,,25401 Whitworth Dr S,,,,FL,,,NO,404380511,,22304,,2015-02-05 16:48:56.0,,FieldExists,
,257,397,,Wilhelm I Mckinley,,25401 Whitworth Dr S,,,,FL,,,NO,404380511,,22304,,2015-02-05 16:48:56.0,,AddressExists,
,258,399,,Lindsay V Gravett,,10 Dunedin Dr,,,,TX,,,NO,682201063,,87534,,2015-02-05 16:48:56.0,,FieldExists,
,259,399,,Lindsay V Gravett,,10 Dunedin Dr,,,,TX,,,NO,682201063,,87534,,2015-02-05 16:48:56.0,,AddressExists,
,260,400,,Michel W Dodd,,1501 Little Gloucester Rd,,,,TX,,,NO,537717315,,81959,,2015-02-05 16:48:56.0,,FieldExists,
,261,400,,Michel W Dodd,,1501 Little Gloucester Rd,,,,TX,,,NO,537717315,,81959,,2015-02-05 16:48:56.0,,AddressExists,
,262,402,,Zipporah X Haase,,Robinhood Rd,,,,NC,,,NO,442084616,,74539,,2015-02-05 16:48:56.0,,FieldExists,
,263,402,,Zipporah X Haase,,Robinhood Rd,,,,NC,,,NO,442084616,,74539,,2015-02-05 16:48:56.0,,AddressExists,
,264,404,,Raleigh Y Wumkes,,5852 Homestead Rd,,,,TX,,,NO,450138073,,58121,,2015-02-05 16:48:56.0,,FieldExists,
,265,404,,Raleigh Y Wumkes,,5852 Homestead Rd,,,,TX,,,NO,450138073,,58121,,2015-02-05 16:48:56.0,,AddressExists,
,266,406,,Juan N Power,,417 S 9th Ave,,,,TX,,,NO,547380801,,92898,,2015-02-05 16:48:56.0,,FieldExists,
,267,406,,Juan N Power,,417 S 9th Ave,,,,TX,,,NO,547380801,,92898,,2015-02-05 16:48:56.0,,AddressExists,
,268,408,,Otha U Elms,,15907 Avenue C,,,,NC,,,NO,584850408,,74895,,2015-02-05 16:48:56.0,,FieldExists,
,269,408,,Otha U Elms,,15907 Avenue C,,,,NC,,,NO,584850408,,74895,,2015-02-05 16:48:56.0,,AddressExists,
,270,41,,Lee I Western,,107 Lucinda Dr,,,,FL,,,NO,721732761,,28884,,2015-02-05 16:48:56.0,,FieldExists,
,271,41,,Lee I Western,,107 Lucinda Dr,,,,FL,,,NO,721732761,,28884,,2015-02-05 16:48:56.0,,AddressExists,
,272,410,,Virgil Margareth Bruinsslot,,RR,,,,NC,,,NO,467213409,,74539,,2015-02-05 16:48:56.0,,FieldExists,
,273,410,,Virgil Margareth Bruinsslot,,RR,,,,NC,,,NO,467213409,,74539,,2015-02-05 16:48:56.0,,AddressExists,
,274,412,,Jeramy Barcus,,5604 Saxon Pl,,,,NC,,,NO,745196539,,75328,,2015-02-05 16:48:56.0,,FieldExists,
,275,412,,Jeramy Barcus,,5604 Saxon Pl,,,,NC,,,NO,745196539,,75328,,2015-02-05 16:48:56.0,,AddressExists,
,276,414,,Kevin N Krogulecki,,5925 105th Ave,,,,SC,,,NO,539020808,,85986,,2015-02-05 16:48:56.0,,FieldExists,
,277,414,,Kevin N Krogulecki,,5925 105th Ave,,,,SC,,,NO,539020808,,85986,,2015-02-05 16:48:56.0,,AddressExists,
,278,416,,Richard O Terry,,15802 E Willis Rd,,,,AL,,NO,,629789021,,36005,,2015-02-05 16:48:56.0,,AddressExists,
,279,418,,Wally U Slaght,,900 4240 US Hwy 41n,,,,AL,,YES,,601837575,,36035,,2015-02-05 16:48:56.0,,AddressExists,
,280,421,,Benjamine X Cranmer,,3018 229th Pl NE,,,,AL,,YES,,775337066,,36116,,2015-02-05 16:48:56.0,,AddressExists,
,281,423,,Hanora M Rohde,,1 Park St,,,,AL,,NO,,416129409,,36109,,2015-02-05 16:48:56.0,,AddressExists,
,282,425,,Emitt W Ackley,,236 W Waupun St,,,,AL,,NO,,419623956,,36105,,2015-02-05 16:48:56.0,,AddressExists,
,283,427,,Wess T Suthithavil,,96 Rock City Rd,,,,AL,,NO,,486003480,,36109,,2015-02-05 16:48:56.0,,AddressExists,
,284,429,,Loraine Y Hamlin,,RR 2,,,,AL,,NO,,422186855,,36081,,2015-02-05 16:48:56.0,,AddressExists,
,285,43,,Mille Burnam,,14202 Franklin Ave,,,,FL,,,NO,731146160,,22303,,2015-02-05 16:48:56.0,,FieldExists,
,286,43,,Mille Burnam,,14202 Franklin Ave,,,,FL,,,NO,731146160,,22303,,2015-02-05 16:48:56.0,,AddressExists,
,287,431,,Shaaban Z Demyan,,1868 Highway 63,,,,AL,,YES,,418027051,,36081,,2015-02-05 16:48:56.0,,AddressExists,
,288,433,,Jay S Quenette,,6717 N Branch Ct,,,,AL,,NO,,256223695,,36081,,2015-02-05 16:48:56.0,,AddressExists,
,289,435,,Ona J Arbib,,1621 N 56th Ln,,,,AL,,YES,,418244932,,36081,,2015-02-05 16:48:56.0,,AddressExists,
,290,437,,Dora T Jumawan,,18415 Barstow Rd,,,,AL,,YES,,643403125,,36079,,2015-02-05 16:48:56.0,,AddressExists,
,291,439,,Janice X Luthy,,140 Eastwood Cir,,,,AL,,NO,,655330158,,36081,,2015-02-05 16:48:56.0,,AddressExists,
,292,441,,Hurston E Cary,,Hwy 167,,,,LA,,,NO,565172104,,54749,,2015-02-05 16:48:56.0,,FieldExists,
,293,441,,Hurston E Cary,,Hwy 167,,,,LA,,,NO,565172104,,54749,,2015-02-05 16:48:56.0,,AddressExists,
,294,443,,Jabbar R Kostic,,605 Stucky St Apt B3,,,,GA,,,NO,715787070,,86497,,2015-02-05 16:48:56.0,,FieldExists,
,295,443,,Jabbar R Kostic,,605 Stucky St Apt B3,,,,GA,,,NO,715787070,,86497,,2015-02-05 16:48:56.0,,AddressExists,
,296,445,,Bailey P Schone,,RR 1,,,,VA,,,NO,667892007,,81331,,2015-02-05 16:48:56.0,,FieldExists,
,297,445,,Bailey P Schone,,RR 1,,,,VA,,,NO,667892007,,81331,,2015-02-05 16:48:56.0,,AddressExists,
,298,447,,Sanford A Fawsett,,429 Golden Acres Dr,,,,FL,,,NO,607490676,,31697,,2015-02-05 16:48:56.0,,FieldExists,
,299,447,,Sanford A Fawsett,,429 Golden Acres Dr,,,,FL,,,NO,607490676,,31697,,2015-02-05 16:48:56.0,,AddressExists,
,300,449,,Wilford C Creasman,,1027 4th St,,,,FL,,,NO,654701811,,88000,,2015-02-05 16:48:56.0,,FieldExists,
,301,449,,Wilford C Creasman,,1027 4th St,,,,FL,,,NO,654701811,,88000,,2015-02-05 16:48:56.0,,AddressExists,
,302,45,,Mel V Bullis,,19121 Helton Ln,,,,FL,,,NO,460022257,,93750,,2015-02-05 16:48:56.0,,FieldExists,
,303,45,,Mel V Bullis,,19121 Helton Ln,,,,FL,,,NO,460022257,,93750,,2015-02-05 16:48:56.0,,AddressExists,
,304,451,,Amos Harper,,2112 N Bigelow St,,,,FL,,,NO,606556460,,37953,,2015-02-05 16:48:56.0,,FieldExists,
,305,451,,Amos Harper,,2112 N Bigelow St,,,,FL,,,NO,606556460,,37953,,2015-02-05 16:48:56.0,,AddressExists,
,306,453,,Custer P Inscho,,4006 Emerald St,,,,TX,,,NO,727044107,,89251,,2015-02-05 16:48:56.0,,FieldExists,
,307,453,,Custer P Inscho,,4006 Emerald St,,,,TX,,,NO,727044107,,89251,,2015-02-05 16:48:56.0,,AddressExists,
,308,455,,Greg O Ross,,2687 N Ocean Blvd,,,,FL,,,NO,557750080,,28884,,2015-02-05 16:48:56.0,,FieldExists,
,309,455,,Greg O Ross,,2687 N Ocean Blvd,,,,FL,,,NO,557750080,,28884,,2015-02-05 16:48:56.0,,AddressExists,
,310,457,,Bruce S Fairhurst,,2070 Lake Harbin Rd,,,,FL,,,NO,605805285,,71042,,2015-02-05 16:48:56.0,,FieldExists,
,311,457,,Bruce S Fairhurst,,2070 Lake Harbin Rd,,,,FL,,,NO,605805285,,71042,,2015-02-05 16:48:56.0,,AddressExists,
,312,459,,Lynn A Megles,,275 Valley St,,,,FL,,,NO,472059280,,62818,,2015-02-05 16:48:56.0,,FieldExists,
,313,459,,Lynn A Megles,,275 Valley St,,,,FL,,,NO,472059280,,62818,,2015-02-05 16:48:56.0,,AddressExists,
,314,460,,Jeanne C Lambert,,2896 Via Suspiro,,,,FL,,,NO,503443230,,93750,,2015-02-05 16:48:56.0,,FieldExists,
,315,460,,Jeanne C Lambert,,2896 Via Suspiro,,,,FL,,,NO,503443230,,93750,,2015-02-05 16:48:56.0,,AddressExists,
,316,462,,Lazaro I Ayala,,3877 Park Ln,,,,TX,,,NO,414747630,,73309,,2015-02-05 16:48:56.0,,FieldExists,
,317,462,,Lazaro I Ayala,,3877 Park Ln,,,,TX,,,NO,414747630,,73309,,2015-02-05 16:48:56.0,,AddressExists,
,318,464,,Malcom B Yoder,,Cotton Plant,,,,TX,,,NO,448514166,,89251,,2015-02-05 16:48:56.0,,FieldExists,
,319,464,,Malcom B Yoder,,Cotton Plant,,,,TX,,,NO,448514166,,89251,,2015-02-05 16:48:56.0,,AddressExists,
,320,466,,Lauren W Felton,,3416 Kedzie St,,,,TX,,,NO,406465911,,58121,,2015-02-05 16:48:56.0,,FieldExists,
,321,466,,Lauren W Felton,,3416 Kedzie St,,,,TX,,,NO,406465911,,58121,,2015-02-05 16:48:56.0,,AddressExists,
,322,468,,Myong P Tillman,,7517 E 33rd St,,,,TX,,,NO,482421471,,22598,,2015-02-05 16:48:56.0,,FieldExists,
,323,468,,Myong P Tillman,,7517 E 33rd St,,,,TX,,,NO,482421471,,22598,,2015-02-05 16:48:56.0,,AddressExists,
,324,47,,Marlan L Stangl,,40 Route 130,,,,TX,,,NO,666191390,,46855,,2015-02-05 16:48:56.0,,FieldExists,
,325,47,,Marlan L Stangl,,40 Route 130,,,,TX,,,NO,666191390,,46855,,2015-02-05 16:48:56.0,,AddressExists,
,326,470,,Kary L Mclaren,,Plainview,,,,NC,,,NO,770263807,,74895,,2015-02-05 16:48:56.0,,FieldExists,
,327,470,,Kary L Mclaren,,Plainview,,,,NC,,,NO,770263807,,74895,,2015-02-05 16:48:56.0,,AddressExists,
,328,472,,Dinesh Q Best,,75 W Grand,,,,NC,,,NO,412080006,,74539,,2015-02-05 16:48:56.0,,FieldExists,
,329,472,,Dinesh Q Best,,75 W Grand,,,,NC,,,NO,412080006,,74539,,2015-02-05 16:48:56.0,,AddressExists,
,330,474,,Nicole Z Waterworth,,2869 NW 9th Pl,,,,NC,,,NO,555197437,,75328,,2015-02-05 16:48:56.0,,FieldExists,
,331,474,,Nicole Z Waterworth,,2869 NW 9th Pl,,,,NC,,,NO,555197437,,75328,,2015-02-05 16:48:56.0,,AddressExists,
,332,476,,Prudencia Y Brandt,,3450 Wayne Ave,,,,TX,,,NO,534864668,,88919,,2015-02-05 16:48:56.0,,FieldExists,
,333,476,,Prudencia Y Brandt,,3450 Wayne Ave,,,,TX,,,NO,534864668,,88919,,2015-02-05 16:48:56.0,,AddressExists,
,334,478,,Hyong D Kottenbrock,,5802 Drakes Dr,,,,TX,,,NO,702548718,,58121,,2015-02-05 16:48:56.0,,FieldExists,
,335,478,,Hyong D Kottenbrock,,5802 Drakes Dr,,,,TX,,,NO,702548718,,58121,,2015-02-05 16:48:56.0,,AddressExists,
,336,480,,Robin W Cameron,,10038 S Graham Rd,,,,TX,,,NO,728142345,,92898,,2015-02-05 16:48:56.0,,FieldExists,
,337,480,,Robin W Cameron,,10038 S Graham Rd,,,,TX,,,NO,728142345,,92898,,2015-02-05 16:48:56.0,,AddressExists,
,338,482,,Lloyd F Engman,,1289 Morning Ave,,,,NC,,,NO,447881343,,72826,,2015-02-05 16:48:56.0,,FieldExists,
,339,482,,Lloyd F Engman,,1289 Morning Ave,,,,NC,,,NO,447881343,,72826,,2015-02-05 16:48:56.0,,AddressExists,
,340,484,,Mohan M Cotugno,,2665 Newark Granville Rd,,,,NC,,,NO,472001076,,75291,,2015-02-05 16:48:56.0,,FieldExists,
,341,484,,Mohan M Cotugno,,2665 Newark Granville Rd,,,,NC,,,NO,472001076,,75291,,2015-02-05 16:48:56.0,,AddressExists,
,342,486,,Miles B Wolfinbarger,,49 Union Ave,,,,SC,,,NO,451802672,,85728,,2015-02-05 16:48:56.0,,FieldExists,
,343,486,,Miles B Wolfinbarger,,49 Union Ave,,,,SC,,,NO,451802672,,85728,,2015-02-05 16:48:56.0,,AddressExists,
,344,49,,Johnie C Amilkian,,46 Township Line Rd,,,,TX,,,NO,564300748,,85662,,2015-02-05 16:48:56.0,,FieldExists,
,345,49,,Johnie C Amilkian,,46 Township Line Rd,,,,TX,,,NO,564300748,,85662,,2015-02-05 16:48:56.0,,AddressExists,
,346,5,,Fee Q Zampieri,,RR 32,,,,AL,,NO,,420364654,,36035,,2015-02-05 16:48:56.0,,AddressExists,
,347,51,,Jaqueline W Bose,,1305 Clyde St,,,,FL,,,NO,444400450,,69101,,2015-02-05 16:48:56.0,,FieldExists,
,348,51,,Jaqueline W Bose,,1305 Clyde St,,,,FL,,,NO,444400450,,69101,,2015-02-05 16:48:56.0,,AddressExists,
,349,53,,Frederic X Alex,,168 W Main St,,,,TX,,,NO,648002404,,92898,,2015-02-05 16:48:56.0,,FieldExists,
,350,53,,Frederic X Alex,,168 W Main St,,,,TX,,,NO,648002404,,92898,,2015-02-05 16:48:56.0,,AddressExists,
,351,55,,Terri Q Schulz,,409 Colorado Blvd,,,,NC,,,NO,627846870,,74840,,2015-02-05 16:48:56.0,,FieldExists,
,352,55,,Terri Q Schulz,,409 Colorado Blvd,,,,NC,,,NO,627846870,,74840,,2015-02-05 16:48:56.0,,AddressExists,
,353,57,,Melody S Abbott,,949 S 2nd St,,,,NC,,,NO,519470150,,74539,,2015-02-05 16:48:56.0,,FieldExists,
,354,57,,Melody S Abbott,,949 S 2nd St,,,,NC,,,NO,519470150,,74539,,2015-02-05 16:48:56.0,,AddressExists,
,355,59,,Riehard R Towle,,931 Brentwood Dr,,,,NC,,,NO,401006620,,75291,,2015-02-05 16:48:56.0,,FieldExists,
,356,59,,Riehard R Towle,,931 Brentwood Dr,,,,NC,,,NO,401006620,,75291,,2015-02-05 16:48:56.0,,AddressExists,
,357,60,,Gael W Rubel,,Hwy 41 N,,,,NC,,,NO,664775365,,75328,,2015-02-05 16:48:56.0,,FieldExists,
,358,60,,Gael W Rubel,,Hwy 41 N,,,,NC,,,NO,664775365,,75328,,2015-02-05 16:48:56.0,,AddressExists,
,359,62,,Kaye X Riley,,1747 Le Flore Dr,,,,AL,,NO,,528074458,,36005,,2015-02-05 16:48:56.0,,AddressExists,
,360,64,,Eric X Hirahara,,6337 99th St E,,,,AL,,YES,,999-99-9999,,36005,,2015-02-05 16:48:56.0,,AddressExists,
,361,66,,Moshe D Mercadante,,900 4th St NE,,,,AL,,NO,,419029160,,36035,,2015-02-05 16:48:56.0,,AddressExists,
,362,68,,Mack W Perreault,,39737 Road 274,,,,AL,,NO,,264246606,,36109,,2015-02-05 16:48:56.0,,AddressExists,
,363,7,,Benjamin W Whitaker,,376 N Brookings Ave,,,,AL,,YES,,546650053,,36116,,2015-02-05 16:48:56.0,,AddressExists,
,364,70,,Daryle F Anchondo,,9704 Snra Hrdn Sprgs Rd,,,,AL,,YES,,217661742,,36116,,2015-02-05 16:48:56.0,,AddressExists,
,365,72,,Colby J Knott,,34280 Andrews Rd,,,,AL,,NO,,419403779,,36107,,2015-02-05 16:48:56.0,,AddressExists,
,366,74,,Sylenda O Muster,,10 Hill,,,,AL,,NO,,580203226,,36111,,2015-02-05 16:48:56.0,,AddressExists,
,367,76,,Kristin G Christensen,,7533 Cowman Rd,,,,AL,,YES,,633368888,,36081,,2015-02-05 16:48:56.0,,AddressExists,
,368,78,,Elmo T Bates,,32 Brooksbie Rd,,,,AL,,NO,,424321354,,36081,,2015-02-05 16:48:56.0,,AddressExists,
,369,80,,Antonette G Maire,,610 E Vista St,,,,AL,,NO,,420180834,,36081,,2015-02-05 16:48:56.0,,AddressExists,
,370,82,,Roy K Cuffe,,316 Dailey St,,,,AL,,NO,,417565062,,36081,,2015-02-05 16:48:56.0,,AddressExists,
,371,84,,Catarina E Green,,2832 Kansas Rd,,,,AL,,YES,,433380022,,36081,,2015-02-05 16:48:56.0,,AddressExists,
,372,86,,Jim Shope,,130 State St N,,,,AL,,YES,,423266106,,36081,,2015-02-05 16:48:56.0,,AddressExists,
,373,88,,Leonid T Vittum,,3964 Greenwood St,,,,LA,,,NO,566462080,,73333,,2015-02-05 16:48:56.0,,FieldExists,
,374,88,,Leonid T Vittum,,3964 Greenwood St,,,,LA,,,NO,566462080,,73333,,2015-02-05 16:48:56.0,,AddressExists,
,375,9,,Colby J Knott,,34280 Andrews Rd,,,,AL,,NO,,419403779,,36107,,2015-02-05 16:48:56.0,,AddressExists,
,376,90,,Noreen C Rose,,PO Box 323,,,,LA,,,NO,434008010,,40324,,2015-02-05 16:48:56.0,,FieldExists,
,377,90,,Noreen C Rose,,PO Box 323,,,,LA,,,NO,434008010,,40324,,2015-02-05 16:48:56.0,,AddressExists,
,378,92,,Andrea Y Orscheln,,207 Circle Dr,,,,OK,,,NO,645358972,,44277,,2015-02-05 16:48:56.0,,FieldExists,
,379,92,,Andrea Y Orscheln,,207 Circle Dr,,,,OK,,,NO,645358972,,44277,,2015-02-05 16:48:56.0,,AddressExists,
,380,94,,Lonnie C Souvanlasy,,1109 Nancy Ln,,,,VA,,,NO,700804372,,40513,,2015-02-05 16:48:56.0,,FieldExists,
,381,94,,Lonnie C Souvanlasy,,1109 Nancy Ln,,,,VA,,,NO,700804372,,40513,,2015-02-05 16:48:56.0,,AddressExists,
,382,96,,Tatiana N Sargent,,121 S Hwy 385,,,,FL,,,NO,411150727,,95134,,2015-02-05 16:48:56.0,,FieldExists,
,383,96,,Tatiana N Sargent,,121 S Hwy 385,,,,FL,,,NO,411150727,,95134,,2015-02-05 16:48:56.0,,AddressExists,
,384,98,,Elwyn Z Oberdorf,,501 9th Ave SW,,,,FL,,,NO,620150301,,37953,,2015-02-05 16:48:56.0,,FieldExists,
,385,98,,Elwyn Z Oberdorf,,501 9th Ave SW,,,,FL,,,NO,620150301,,37953,,2015-02-05 16:48:56.0,,AddressExists,
,386,0,,Keum T Shaw,,8808 Howard Hills Dr,,,,AL,,NO,,742761232,,36005,,2015-02-05 16:48:56.0,,AddressExists,
,387,100,,Merle P Provost,,3675 23rd Ave SW,,,,FL,,,NO,627752051,,55552,,2015-02-05 16:48:56.0,,FieldExists,
,388,100,,Merle P Provost,,3675 23rd Ave SW,,,,FL,,,NO,627752051,,55552,,2015-02-05 16:48:56.0,,AddressExists,
,389,102,,Jeanie R Stanley,,3470 N Alpine Rd,,,,FL,,,NO,426102449,,55552,,2015-02-05 16:48:56.0,,FieldExists,
,390,102,,Jeanie R Stanley,,3470 N Alpine Rd,,,,FL,,,NO,426102449,,55552,,2015-02-05 16:48:56.0,,AddressExists,
,391,104,,Bland C Mixer,,RR 2,,,,FL,,,NO,407496005,,71042,,2015-02-05 16:48:56.0,,FieldExists,
,392,104,,Bland C Mixer,,RR 2,,,,FL,,,NO,407496005,,71042,,2015-02-05 16:48:56.0,,AddressExists,
,393,106,,Marlan J Bahr,,14790 Ida Center Rd,,,,FL,,,NO,450724337,,62818,,2015-02-05 16:48:56.0,,FieldExists,
,394,106,,Marlan J Bahr,,14790 Ida Center Rd,,,,FL,,,NO,450724337,,62818,,2015-02-05 16:48:56.0,,AddressExists,
,395,108,,Gregg P Pariseau,,129 Kenton Hwy,,,,TX,,,NO,544044065,,32066,,2015-02-05 16:48:56.0,,FieldExists,
,396,108,,Gregg P Pariseau,,129 Kenton Hwy,,,,TX,,,NO,544044065,,32066,,2015-02-05 16:48:56.0,,AddressExists,
,397,11,,Doyle Cabrera,,2726 Granada Way,,,,AL,,NO,,416403935,,36109,,2015-02-05 16:48:56.0,,AddressExists,
,398,110,,Von T Sandy,,1602 Clements Dr,,,,TX,,,NO,456023008,,46855,,2015-02-05 16:48:56.0,,FieldExists,
,399,110,,Von T Sandy,,1602 Clements Dr,,,,TX,,,NO,456023008,,46855,,2015-02-05 16:48:56.0,,AddressExists,
,400,112,,Myrna T Ziemba,,RR 1,,,,TX,,,NO,443456071,,35715,,2015-02-05 16:48:56.0,,FieldExists,
,401,112,,Myrna T Ziemba,,RR 1,,,,TX,,,NO,443456071,,35715,,2015-02-05 16:48:56.0,,AddressExists,
,402,114,,Rosmira U French,,408 Sheridan St,,,,TX,,,NO,722505846,,69101,,2015-02-05 16:48:56.0,,FieldExists,
,403,114,,Rosmira U French,,408 Sheridan St,,,,TX,,,NO,722505846,,69101,,2015-02-05 16:48:56.0,,AddressExists,
,404,116,,Sharlinda I Armstrong,,RR 1 Box 44,,,,AL,,NO,,403408604,,36005,,2015-02-05 16:48:56.0,,AddressExists,
,405,118,,Duncan R Steinbinder,,231 N Allis Hwy,,,,AL,,YES,,403989827,,36005,,2015-02-05 16:48:56.0,,AddressExists,
,406,121,,Julio G Iaquinto,,2901 N Mccullen Rd,,,,AL,,NO,,417082224,,36036,,2015-02-05 16:48:56.0,,AddressExists,
,407,123,,Goldie L Mcbride,,5030 Heavenly Ct,,,,AL,,NO,,735058215,,36109,,2015-02-05 16:48:56.0,,AddressExists,
,408,125,,Mukesh W Finch,,55 W 184th St,,,,AL,,YES,,420761242,,36105,,2015-02-05 16:48:56.0,,AddressExists,
,409,127,,Connie V Bertuzzi,,750 Elinor Way,,,,AL,,NO,,510094190,,36111,,2015-02-05 16:48:56.0,,AddressExists,
,410,129,,Luis 'Wally' Baumann,,4601 N 102 Ave,,,,AL,,NO,,540104600,,36064,,2015-02-05 16:48:56.0,,AddressExists,
,411,13,,Lisbeth N Huez,,Lk Pillsbury,,,,AL,,NO,,423208700,,36105,,2015-02-05 16:48:56.0,,AddressExists,
,412,131,,Anet M Ng,,2605 Woodlawn Dr,,,,AL,,NO,,437537134,,36081,,2015-02-05 16:48:56.0,,AddressExists,
,413,133,,Angelo K Wegener,,27 Hazard St,,,,AL,,NO,,500561682,,36081,,2015-02-05 16:48:56.0,,AddressExists,
,414,135,,Chayim E Pier,,1389 Agnes Pl,,,,AL,,NO,,421305150,,36081,,2015-02-05 16:48:56.0,,AddressExists,
,415,137,,Omid V Lagerwey,,313 Indian Bridge Dr,,,,NC,,NO,,507395608,,36081,,2015-02-05 16:48:56.0,,AddressExists,
,416,139,,Haynie G Gately,,210 E Bowman St,,,,AL,,NO,,457005448,,36081,,2015-02-05 16:48:56.0,,AddressExists,
,417,141,,Maryanne Y Erdmann,,872 Lenox Oaks Cir NE,,,,AL,,YES,,420243923,,36081,,2015-02-05 16:48:56.0,,AddressExists,
,418,143,,Rafael V Hermann,,2027 California Ave,,,,LA,,,NO,479527738,,54955,,2015-02-05 16:48:56.0,,FieldExists,
,419,143,,Rafael V Hermann,,2027 California Ave,,,,LA,,,NO,479527738,,54955,,2015-02-05 16:48:56.0,,AddressExists,
,420,145,,Augustus Y Mckenzie,,3 Maple Ave,,,,GA,,,NO,538063264,,88494,,2015-02-05 16:48:56.0,,FieldExists,
,421,145,,Augustus Y Mckenzie,,3 Maple Ave,,,,GA,,,NO,538063264,,88494,,2015-02-05 16:48:56.0,,AddressExists,
,422,147,,Troy Q Angeles,,103 Gordon,,,,VA,,,NO,576200228,,42383,,2015-02-05 16:48:56.0,,FieldExists,
,423,147,,Troy Q Angeles,,103 Gordon,,,,VA,,,NO,576200228,,42383,,2015-02-05 16:48:56.0,,AddressExists,
,424,149,,Violetta I Gastelum PhD,,4901 Margalo Ave,,,,FL,,,NO,420023351,,31697,,2015-02-05 16:48:56.0,,FieldExists,
,425,149,,Violetta I Gastelum PhD,,4901 Margalo Ave,,,,FL,,,NO,420023351,,31697,,2015-02-05 16:48:56.0,,AddressExists,
,426,151,,Launa J Kittredge,,Highway 243,,,,FL,,,NO,506562077,,88000,,2015-02-05 16:48:56.0,,FieldExists,
,427,151,,Launa J Kittredge,,Highway 243,,,,FL,,,NO,506562077,,88000,,2015-02-05 16:48:56.0,,AddressExists,
,428,153,,Ophelia M Chiodo,,8600 1st Ave,,,,NC,,,NO,778073834,,87754,,2015-02-05 16:48:56.0,,FieldExists,
,429,153,,Ophelia M Chiodo,,8600 1st Ave,,,,NC,,,NO,778073834,,87754,,2015-02-05 16:48:56.0,,AddressExists,
,430,155,,Duane C Kastenbauer,,3055 Quercus Dr,,,,FL,,,NO,465748010,,55552,,2015-02-05 16:48:56.0,,FieldExists,
,431,155,,Duane C Kastenbauer,,3055 Quercus Dr,,,,FL,,,NO,465748010,,55552,,2015-02-05 16:48:56.0,,AddressExists,
,432,157,,Freida I Balon,,7712 Sherwood Blvd,,,,FL,,,NO,474677980,,95480,,2015-02-05 16:48:56.0,,FieldExists,
,433,157,,Freida I Balon,,7712 Sherwood Blvd,,,,FL,,,NO,474677980,,95480,,2015-02-05 16:48:56.0,,AddressExists,
,434,159,,Deirdre Y Mc Intosh,,301 3,,,,FL,,,NO,422532455,,22018,,2015-02-05 16:48:56.0,,FieldExists,
,435,159,,Deirdre Y Mc Intosh,,301 3,,,,FL,,,NO,422532455,,22018,,2015-02-05 16:48:56.0,,AddressExists,
,436,160,,Helen C Boe,,535 S Denby Ave,,,,FL,,,NO,401527635,,93750,,2015-02-05 16:48:56.0,,FieldExists,
,437,160,,Helen C Boe,,535 S Denby Ave,,,,FL,,,NO,401527635,,93750,,2015-02-05 16:48:56.0,,AddressExists,
,438,162,,Rodeny I Wigle,,213 Maple St,,,,TX,,,NO,734470487,,81959,,2015-02-05 16:48:56.0,,FieldExists,
,439,162,,Rodeny I Wigle,,213 Maple St,,,,TX,,,NO,734470487,,81959,,2015-02-05 16:48:56.0,,AddressExists,
,440,164,,Donovan U Marchetti,,750 Greenlee Rd,,,,TX,,,NO,580374025,,88919,,2015-02-05 16:48:56.0,,FieldExists,
,441,164,,Donovan U Marchetti,,750 Greenlee Rd,,,,TX,,,NO,580374025,,88919,,2015-02-05 16:48:56.0,,AddressExists,
,442,166,,Alan G Hanley,,27858 Palmetto Ridge Dr,,,,TX,,,NO,412271519,,58121,,2015-02-05 16:48:56.0,,FieldExists,
,443,166,,Alan G Hanley,,27858 Palmetto Ridge Dr,,,,TX,,,NO,412271519,,58121,,2015-02-05 16:48:56.0,,AddressExists,
,444,168,,Chad A Adamian,,2465 N Fish Creek Rd,,,,TX,,,NO,714405403,,22598,,2015-02-05 16:48:56.0,,FieldExists,
,445,168,,Chad A Adamian,,2465 N Fish Creek Rd,,,,TX,,,NO,714405403,,22598,,2015-02-05 16:48:56.0,,AddressExists,
,446,17,,Dempster I Afrisia,,454 W 25th St,,,,AL,,YES,,419380979,,36081,,2015-02-05 16:48:56.0,,AddressExists,
,447,170,,Lynn U Aghcheghaleh,,266 Beatty School Rd,,,,NC,,,NO,534310277,,74895,,2015-02-05 16:48:56.0,,FieldExists,
,448,170,,Lynn U Aghcheghaleh,,266 Beatty School Rd,,,,NC,,,NO,534310277,,74895,,2015-02-05 16:48:56.0,,AddressExists,
,449,172,,Fong H Besse,,176 Belmont Dr,,,,NC,,,NO,478348305,,72826,,2015-02-05 16:48:56.0,,FieldExists,
,450,172,,Fong H Besse,,176 Belmont Dr,,,,NC,,,NO,478348305,,72826,,2015-02-05 16:48:56.0,,AddressExists,
,451,174,,Clete M Schlange,,80 Main St,,,,NC,,,NO,504003585,,75291,,2015-02-05 16:48:56.0,,FieldExists,
,452,174,,Clete M Schlange,,80 Main St,,,,NC,,,NO,504003585,,75291,,2015-02-05 16:48:56.0,,AddressExists,
,453,176,,Danton A Andino,,408 Short Ave,,,,SC,,,NO,600628076,,85728,,2015-02-05 16:48:56.0,,FieldExists,
,454,176,,Danton A Andino,,408 Short Ave,,,,SC,,,NO,600628076,,85728,,2015-02-05 16:48:56.0,,AddressExists,
,455,178,,Kaye o'Riley,,1747 Le Flore Dr,,,,AL,,NO,,464509620,,36005,,2015-02-05 16:48:56.0,,AddressExists,
,456,180,,Seth R Deaver,,37816a 44th Ave S,,,,AL,,NO,,420601048,,36005,,2015-02-05 16:48:56.0,,AddressExists,
,457,182,,Fee Q Zampieri,,231 Basswood St,,,,AL,,NO,,670694764,,36035,,2015-02-05 16:48:56.0,,AddressExists,
,458,184,,Colt Q Subramaniam,,W Chautauqua St,,,,AL,,NO,,554010706,,36109,,2015-02-05 16:48:56.0,,AddressExists,
,459,186,,Reba W Heddell,,104 Panamint Dr,,,,AL,,NO,,777608847,,36106,,2015-02-05 16:48:56.0,,AddressExists,
,460,188,,T L Jakmauh,,200 N Oregon St,,,,AL,,YES,,538182096,,36111,,2015-02-05 16:48:56.0,,AddressExists,
,461,19,,Edmond N Hess,,506 W 149th St,,,,AL,,NO,,503440239,,36081,,2015-02-05 16:48:56.0,,AddressExists,
,462,190,,Ernst X Holzworth,,338 Quaker Ave,,,,AL,,NO,,782956305,,36105,,2015-02-05 16:48:56.0,,AddressExists,
,463,192,,Terese B Feierabend,,Mongaup,,,,AL,,NO,,665900500,,36081,,2015-02-05 16:48:56.0,,AddressExists,
,464,194,,Dewey E Tilton,,2448 River Oaks Dr,,,,AL,,NO,,780780136,,36081,,2015-02-05 16:48:56.0,,AddressExists,
,465,196,,Oral P Gorriaran,,11 Webster St,,,,AL,,NO,,615227462,,36081,,2015-02-05 16:48:56.0,,AddressExists,
,466,198,,Rocco D Dahle III,,1219 Johnston Rd,,,,AL,,YES,,473454963,,36081,,2015-02-05 16:48:56.0,,AddressExists,
,467,20,,Edmond Harper,,5772 Ontario,,,,AL,,NO,,573042262,,36081,,2015-02-05 16:48:56.0,,AddressExists,
,468,201,,Mamie N Mcmanis,,3127 Rittenhouse St NW,,,,AL,,YES,,424286640,,36081,,2015-02-05 16:48:56.0,,AddressExists,
,469,203,,Annie P Rampone,,326 Washington St,,,,AL,,NO,,683730061,,36081,,2015-02-05 16:48:56.0,,AddressExists,
,470,205,,Celes X Launt,,1500 S Atlanta St,,,,LA,,,NO,528069125,,54544,,2015-02-05 16:48:56.0,,FieldExists,
,471,205,,Celes X Launt,,1500 S Atlanta St,,,,LA,,,NO,528069125,,54544,,2015-02-05 16:48:56.0,,AddressExists,
,472,207,,Roth N Smith,,Rt 2,,,,OK,,,NO,634173526,,74395,,2015-02-05 16:48:56.0,,FieldExists,
,473,207,,Roth N Smith,,Rt 2,,,,OK,,,NO,634173526,,74395,,2015-02-05 16:48:56.0,,AddressExists,
,474,209,,Derry B Wilhite,,5 Meadow Ln,,,,VA,,,NO,619013147,,43522,,2015-02-05 16:48:56.0,,FieldExists,
,475,209,,Derry B Wilhite,,5 Meadow Ln,,,,VA,,,NO,619013147,,43522,,2015-02-05 16:48:56.0,,AddressExists,
,476,211,,Edith T Nigra,,8050 Dean Dr,,,,FL,,,NO,470575002,,31697,,2015-02-05 16:48:56.0,,FieldExists,
,477,211,,Edith T Nigra,,8050 Dean Dr,,,,FL,,,NO,470575002,,31697,,2015-02-05 16:48:56.0,,AddressExists,
,478,213,,Champa J Marzocchi,,6318 Marion Rd NE,,,,FL,,,NO,441474740,,88000,,2015-02-05 16:48:56.0,,FieldExists,
,479,213,,Champa J Marzocchi,,6318 Marion Rd NE,,,,FL,,,NO,441474740,,88000,,2015-02-05 16:48:56.0,,AddressExists,
,480,215,,Vashti J Patrick,,309 Center St,,,,FL,,,NO,600865575,,87754,,2015-02-05 16:48:56.0,,FieldExists,
,481,215,,Vashti J Patrick,,309 Center St,,,,FL,,,NO,600865575,,87754,,2015-02-05 16:48:56.0,,AddressExists,
,482,217,,Lora F Barnes,,Kent Dr,,,,NC,,,NO,510454064,,74539,,2015-02-05 16:48:56.0,,FieldExists,
,483,217,,Lora F Barnes,,Kent Dr,,,,NC,,,NO,510454064,,74539,,2015-02-05 16:48:56.0,,AddressExists,
,484,219,,Aziza L Dunn,,1070 Miramonte Dr,,,,FL,,,NO,408643102,,28884,,2015-02-05 16:48:56.0,,FieldExists,
,485,219,,Aziza L Dunn,,1070 Miramonte Dr,,,,FL,,,NO,408643102,,28884,,2015-02-05 16:48:56.0,,AddressExists,
,486,22,,Bradley L Schillhammer,,4504-A Ruston Pl,,,,AL,,NO,,416141693,,36081,,2015-02-05 16:48:56.0,,AddressExists,
,487,220,,Wes L Peot,,2312 Lincolnwood Dr,,,,FL,,,NO,508896000,,71042,,2015-02-05 16:48:56.0,,FieldExists,
,488,220,,Wes L Peot,,2312 Lincolnwood Dr,,,,FL,,,NO,508896000,,71042,,2015-02-05 16:48:56.0,,AddressExists,
,489,222,,Luz K Dutton,,6264 Gilman St,,,,FL,,,NO,404712683,,31697,,2015-02-05 16:48:56.0,,FieldExists,
,490,222,,Luz K Dutton,,6264 Gilman St,,,,FL,,,NO,404712683,,31697,,2015-02-05 16:48:56.0,,AddressExists,
,491,224,,Marc J Tankersley,,305 Eva Ave,,,,TX,,,NO,439060380,,32066,,2015-02-05 16:48:56.0,,FieldExists,
,492,224,,Marc J Tankersley,,305 Eva Ave,,,,TX,,,NO,439060380,,32066,,2015-02-05 16:48:56.0,,AddressExists,
,493,226,,Desmond W Brys,,45298 Ashwood Ct,,,,TX,,,NO,408335170,,89251,,2015-02-05 16:48:56.0,,FieldExists,
,494,226,,Desmond W Brys,,45298 Ashwood Ct,,,,TX,,,NO,408335170,,89251,,2015-02-05 16:48:56.0,,AddressExists,
,495,228,,Russel C Tuchman,,2016 Freeman Dr,,,,TX,,,NO,423039650,,22303,,2015-02-05 16:48:56.0,,FieldExists,
,496,228,,Russel C Tuchman,,2016 Freeman Dr,,,,TX,,,NO,423039650,,22303,,2015-02-05 16:48:56.0,,AddressExists,
,497,230,,Vic U Berke,,411 NE 951,,,,TX,,,NO,685324241,,22598,,2015-02-05 16:48:56.0,,FieldExists,
,498,230,,Vic U Berke,,411 NE 951,,,,TX,,,NO,685324241,,22598,,2015-02-05 16:48:56.0,,AddressExists,
,499,232,,Myong K Reeve,,17 Brooklyn St,,,,NC,,,NO,510677845,,74895,,2015-02-05 16:48:56.0,,FieldExists,
,500,232,,Myong K Reeve,,17 Brooklyn St,,,,NC,,,NO,510677845,,74895,,2015-02-05 16:48:56.0,,AddressExists,
,501,234,,Winifred D Glass,,Portal Dr,,,,NC,,,NO,718637326,,74840,,2015-02-05 16:48:56.0,,FieldExists,
,502,234,,Winifred D Glass,,Portal Dr,,,,NC,,,NO,718637326,,74840,,2015-02-05 16:48:56.0,,AddressExists,
,503,236,,Detlev Q Barajas,,4201 W Union Hills Dr,,,,NC,,,NO,722698617,,74539,,2015-02-05 16:48:56.0,,FieldExists,
,504,236,,Detlev Q Barajas,,4201 W Union Hills Dr,,,,NC,,,NO,722698617,,74539,,2015-02-05 16:48:56.0,,AddressExists,
,505,238,,Marty D Niles,,Rural,,,,NC,,,NO,575466332,,75328,,2015-02-05 16:48:56.0,,FieldExists,
,506,238,,Marty D Niles,,Rural,,,,NC,,,NO,575466332,,75328,,2015-02-05 16:48:56.0,,AddressExists,
,507,24,,Vynesha I Barojas,,711 N Carancahua St,,,,AL,,NO,,540282970,,36081,,2015-02-05 16:48:56.0,,AddressExists,
,508,240,,Leah Economou,,RT 3 PO BOX 232,,,,AL,,YES,,605879114,,36005,,2015-02-05 16:48:56.0,,AddressExists,
,509,244,,Raquel S Soza,,2642 Shoshone Dr,,,,AL,,NO,,464441843,,36035,,2015-02-05 16:48:56.0,,AddressExists,
,510,246,,Coni U Lapp,,E Blue Hill Rd,,,,AL,,NO,,572020668,,36109,,2015-02-05 16:48:56.0,,AddressExists,
,511,248,,Delorise U Summerfeldt,,7022 Bright Ave,,,,AL,,NO,,420672216,,36109,,2015-02-05 16:48:56.0,,AddressExists,
,512,250,,Connie V Bertuzzi,,750 Elinor Way,,,,AL,,NO,,510094190,,36111,,2015-02-05 16:48:56.0,,AddressExists,
,513,256,,Rainee R Hongess,,1006 Willis St,,,,AL,,NO,,785330207,,36081,,2015-02-05 16:48:56.0,,AddressExists,
,514,258,,Gustavo Y Yurdin,,24005 State Route K,,,,AL,,NO,,600832751,,36081,,2015-02-05 16:48:56.0,,AddressExists,
,515,26,,Sterling E Kankelfitz,,Winchstr Rd,,,,LA,,,NO,548926613,,73333,,2015-02-05 16:48:56.0,,FieldExists,
,516,26,,Sterling E Kankelfitz,,Winchstr Rd,,,,LA,,,NO,548926613,,73333,,2015-02-05 16:48:56.0,,AddressExists,
,517,261,,Rurik Q Medsker,,86 State St,,,,AL,,YES,,438373022,,36081,,2015-02-05 16:48:56.0,,AddressExists,
,518,263,,Lori P Beehler,,3788 N 575 E Rd,,,,AL,,YES,,405309914,,36081,,2015-02-05 16:48:56.0,,AddressExists,
,519,265,,Wayne N Shaffer,,3720 Forest Green Dr,,,,AL,,NO,,646200668,,36081,,2015-02-05 16:48:56.0,,AddressExists,
,520,267,,Regis F Reedy,,716 Ellison Bend Rd,,,,NC,,,NO,505780023,,54544,,2015-02-05 16:48:56.0,,FieldExists,
,521,267,,Regis F Reedy,,716 Ellison Bend Rd,,,,NC,,,NO,505780023,,54544,,2015-02-05 16:48:56.0,,AddressExists,
,522,269,,Yu B Georges,,14 Settlement Rd,,,,GA,,,NO,415002855,,83376,,2015-02-05 16:48:56.0,,FieldExists,
,523,269,,Yu B Georges,,14 Settlement Rd,,,,GA,,,NO,415002855,,83376,,2015-02-05 16:48:56.0,,AddressExists,
,524,271,,Roy W Kluth,,15680 La Moine St,,,,VA,,,NO,686650408,,42383,,2015-02-05 16:48:56.0,,FieldExists,
,525,271,,Roy W Kluth,,15680 La Moine St,,,,VA,,,NO,686650408,,42383,,2015-02-05 16:48:56.0,,AddressExists,
,526,273,,Chas Schillhammer,,2616 Plainfield Road,,,,FL,,,NO,686036882,,88000,,2015-02-05 16:48:56.0,,FieldExists,
,527,273,,Chas Schillhammer,,2616 Plainfield Road,,,,FL,,,NO,686036882,,88000,,2015-02-05 16:48:56.0,,AddressExists,
,528,275,,Constance E Iverson,,14 Dorset Rd,,,,FL,,,NO,440301407,,37953,,2015-02-05 16:48:56.0,,FieldExists,
,529,275,,Constance E Iverson,,14 Dorset Rd,,,,FL,,,NO,440301407,,37953,,2015-02-05 16:48:56.0,,AddressExists,
,530,277,,Barbra J Fix,,213 E 8th St,,,,FL,,,NO,793769600,,55552,,2015-02-05 16:48:56.0,,FieldExists,
,531,277,,Barbra J Fix,,213 E 8th St,,,,FL,,,NO,793769600,,55552,,2015-02-05 16:48:56.0,,AddressExists,
,532,279,,Arlon B Frye,,2 Valencia Ct,,,,FL,,,NO,413031781,,28884,,2015-02-05 16:48:56.0,,FieldExists,
,533,279,,Arlon B Frye,,2 Valencia Ct,,,,FL,,,NO,413031781,,28884,,2015-02-05 16:48:56.0,,AddressExists,
,534,28,,Alma D Boylowlu,,118 Liberty St,,,,LA,,,NO,600227060,,54544,,2015-02-05 16:48:56.0,,FieldExists,
,535,28,,Alma D Boylowlu,,118 Liberty St,,,,LA,,,NO,600227060,,54544,,2015-02-05 16:48:56.0,,AddressExists,
,536,281,,Jeffery B Merenda,,129 Old Hll Brdg Rd,,,,FL,,,NO,410887361,,24016,,2015-02-05 16:48:56.0,,FieldExists,
,537,281,,Jeffery B Merenda,,129 Old Hll Brdg Rd,,,,FL,,,NO,410887361,,24016,,2015-02-05 16:48:56.0,,AddressExists,
,538,283,,Larnell D Balassone,,RR,,,,FL,,,NO,498037321,,93750,,2015-02-05 16:48:56.0,,FieldExists,
,539,283,,Larnell D Balassone,,RR,,,,FL,,,NO,498037321,,93750,,2015-02-05 16:48:56.0,,AddressExists,
,540,285,,Doran E Vogl,,246 Brentwood Ave,,,,TX,,,NO,609800892,,73309,,2015-02-05 16:48:56.0,,FieldExists,
,541,285,,Doran E Vogl,,246 Brentwood Ave,,,,TX,,,NO,609800892,,73309,,2015-02-05 16:48:56.0,,AddressExists,
,542,287,,Perry V Albanese,,3129 Miller Ave,,,,NC,,,NO,732828751,,75291,,2015-02-05 16:48:56.0,,FieldExists,
,543,287,,Perry V Albanese,,3129 Miller Ave,,,,NC,,,NO,732828751,,75291,,2015-02-05 16:48:56.0,,AddressExists,
,544,289,,Tatiana G Michalske,,RR 2,,,,TX,,,NO,472214216,,58121,,2015-02-05 16:48:56.0,,FieldExists,
,545,289,,Tatiana G Michalske,,RR 2,,,,TX,,,NO,472214216,,58121,,2015-02-05 16:48:56.0,,AddressExists,
,546,291,,Shelly O Ewerts,,Hc 66,,,,TX,,,NO,740487290,,46593,,2015-02-05 16:48:56.0,,FieldExists,
,547,291,,Shelly O Ewerts,,Hc 66,,,,TX,,,NO,740487290,,46593,,2015-02-05 16:48:56.0,,AddressExists,
,548,293,,Evan W Marchant,,327 Old Canton Rd,,,,NC,,,NO,602173069,,74840,,2015-02-05 16:48:56.0,,FieldExists,
,549,293,,Evan W Marchant,,327 Old Canton Rd,,,,NC,,,NO,602173069,,74840,,2015-02-05 16:48:56.0,,AddressExists,
,550,295,,Gerorge W Kilgo,,1801 Wicker,,,,NC,,,NO,700585368,,74539,,2015-02-05 16:48:56.0,,FieldExists,
,551,295,,Gerorge W Kilgo,,1801 Wicker,,,,NC,,,NO,700585368,,74539,,2015-02-05 16:48:56.0,,AddressExists,
,552,297,,George N Ista,,3450 Warburton Ave,,,,NC,,,NO,584533337,,75328,,2015-02-05 16:48:56.0,,FieldExists,
,553,297,,George N Ista,,3450 Warburton Ave,,,,NC,,,NO,584533337,,75328,,2015-02-05 16:48:56.0,,AddressExists,
,554,299,,Hazel Y Yu,,105 Magnolia Trl,,,,AL,,NO,,420423532,,36005,,2015-02-05 16:48:56.0,,AddressExists,
,555,30,,Muriel Z Angsavotai,,6126 W 128th Pl,,,,OK,,,NO,665067177,,74395,,2015-02-05 16:48:56.0,,FieldExists,
,556,30,,Muriel Z Angsavotai,,6126 W 128th Pl,,,,OK,,,NO,665067177,,74395,,2015-02-05 16:48:56.0,,AddressExists,
,557,300,,Sharlinda I Armstrong,,RT 1 Box 44,,,,AL,,YES,,547650763,,36005,,2015-02-05 16:48:56.0,,AddressExists,
,558,302,,Jos R Scholten,,207 S Oakland,,,,AL,,YES,,617808158,,36013,,2015-02-05 16:48:56.0,,AddressExists,
,559,304,,Randy L Krupa,,27626 Brettonwoods St,,,,AL,,YES,,680200403,,36043,,2015-02-05 16:48:56.0,,AddressExists,
,560,306,,Bryan N Hatlen,,1409 W College Ave,,,,AL,,NO,,423016041,,36107,,2015-02-05 16:48:56.0,,AddressExists,
,561,308,,Doyle Cabrera,,2726 Granada Way,,,,AL,,NO,,514053465,,36109,,2015-02-05 16:48:56.0,,AddressExists,
,562,310,,Rand D Kelly,,121 5th Ave NW,,,,AL,,NO,,682327743,,36111,,2015-02-05 16:48:56.0,,AddressExists,
,563,312,,Lorretta R Thackray,,463 E Amber St,,,,AL,,NO,,404403684,,36065,,2015-02-05 16:48:56.0,,AddressExists,
,564,314,,Milo H Wieden,,540 Evergreen Terrace,,,,AL,,NO,,433080317,,36081,,2015-02-05 16:48:56.0,,AddressExists,
,565,316,,Roy Z Kretschmar,,237 Maxwell Rd,,,,AL,,NO,,419650888,,36081,,2015-02-05 16:48:56.0,,AddressExists,
,566,318,,Randy M Aiken,,1616 Fair Oaks Ave,,,,GA,,,NO,444177340,,86497,,2015-02-05 16:48:56.0,,FieldExists,
,567,318,,Randy M Aiken,,1616 Fair Oaks Ave,,,,GA,,,NO,444177340,,86497,,2015-02-05 16:48:56.0,,AddressExists,
,568,32,,Lanice J Berry,,7212 Park West Cir,,,,VA,,,NO,556195040,,43522,,2015-02-05 16:48:56.0,,FieldExists,
,569,32,,Lanice J Berry,,7212 Park West Cir,,,,VA,,,NO,556195040,,43522,,2015-02-05 16:48:56.0,,AddressExists,
,570,321,,Yves F Olson,,5 Steppingstone Rd,,,,AL,,NO,,471532620,,36081,,2015-02-05 16:48:56.0,,AddressExists,
,571,323,,Artemus 'Art' Warren,,501 S Van Buren St,,,,AL,,YES,,789316226,,36081,,2015-02-05 16:48:56.0,,AddressExists,
,572,325,,Darcy S Plagerman,,307 2nd Ave,,,,LA,,,NO,637662937,,40645,,2015-02-05 16:48:56.0,,FieldExists,
,573,325,,Darcy S Plagerman,,307 2nd Ave,,,,LA,,,NO,637662937,,40645,,2015-02-05 16:48:56.0,,AddressExists,
,574,327,,Jesse V Chisholm,,2569 Kentucky St,,,,LA,,,NO,443590638,,40324,,2015-02-05 16:48:56.0,,FieldExists,
,575,327,,Jesse V Chisholm,,2569 Kentucky St,,,,LA,,,NO,443590638,,40324,,2015-02-05 16:48:56.0,,AddressExists,
,576,329,,Cruz V Tate,,833 2nd Ave W,,,,OK,,,NO,405474778,,44633,,2015-02-05 16:48:56.0,,FieldExists,
,577,329,,Cruz V Tate,,833 2nd Ave W,,,,OK,,,NO,405474778,,44633,,2015-02-05 16:48:56.0,,AddressExists,
,578,331,,Devon S Chang,,7432 Tipton Hwy,,,,FL,,,NO,513676048,,31697,,2015-02-05 16:48:56.0,,FieldExists,
,579,331,,Devon S Chang,,7432 Tipton Hwy,,,,FL,,,NO,513676048,,31697,,2015-02-05 16:48:56.0,,AddressExists,
,580,333,,Quincy K Arey,,2109 College Ave,,,,SC,,,NO,430077713,,88000,,2015-02-05 16:48:56.0,,FieldExists,
,581,333,,Quincy K Arey,,2109 College Ave,,,,SC,,,NO,430077713,,88000,,2015-02-05 16:48:56.0,,AddressExists,
,582,335,,Mona Q Rossi,,3312 Lackland Rd,,,,FL,,,NO,567007218,,37953,,2015-02-05 16:48:56.0,,FieldExists,
,583,335,,Mona Q Rossi,,3312 Lackland Rd,,,,FL,,,NO,567007218,,37953,,2015-02-05 16:48:56.0,,AddressExists,
,584,337,,Jerome V Vanburen,,35 Robinson St,,,,FL,,,NO,505133854,,87754,,2015-02-05 16:48:56.0,,FieldExists,
,585,337,,Jerome V Vanburen,,35 Robinson St,,,,FL,,,NO,505133854,,87754,,2015-02-05 16:48:56.0,,AddressExists,
,586,339,,Rosmira E Bahling,,510 E Drachman St,,,,FL,,,NO,603027136,,55552,,2015-02-05 16:48:56.0,,FieldExists,
,587,339,,Rosmira E Bahling,,510 E Drachman St,,,,FL,,,NO,603027136,,55552,,2015-02-05 16:48:56.0,,AddressExists,
,588,34,,Darin I Marsula,,7480 Beechnut St,,,,FL,,,NO,729484090,,98880,,2015-02-05 16:48:56.0,,FieldExists,
,589,34,,Darin I Marsula,,7480 Beechnut St,,,,FL,,,NO,729484090,,98880,,2015-02-05 16:48:56.0,,AddressExists,
,590,341,,Wm U Fusco,,PO Box 402,,,,NC,,,NO,528193760,,74840,,2015-02-05 16:48:56.0,,FieldExists,
,591,341,,Wm U Fusco,,PO Box 402,,,,NC,,,NO,528193760,,74840,,2015-02-05 16:48:56.0,,AddressExists,
,592,343,,Florence X Johnson,,6611 Lybrook Ct,,,,FL,,,NO,474225427,,23018,,2015-02-05 16:48:56.0,,FieldExists,
,593,343,,Florence X Johnson,,6611 Lybrook Ct,,,,FL,,,NO,474225427,,23018,,2015-02-05 16:48:56.0,,AddressExists,
,594,345,,Dianne P Pohlman,,Route 5,,,,TX,,,NO,487320048,,32066,,2015-02-05 16:48:56.0,,FieldExists,
,595,345,,Dianne P Pohlman,,Route 5,,,,TX,,,NO,487320048,,32066,,2015-02-05 16:48:56.0,,AddressExists,
,596,347,,Murrel K Kreusser,,Midway Rt,,,,TX,,,NO,503880102,,46855,,2015-02-05 16:48:56.0,,FieldExists,
,597,347,,Murrel K Kreusser,,Midway Rt,,,,TX,,,NO,503880102,,46855,,2015-02-05 16:48:56.0,,AddressExists,
,598,349,,Edna F Sell,,11101 Old Arkansas Dr,,,,NC,,,NO,405070100,,74840,,2015-02-05 16:48:56.0,,FieldExists,
,599,349,,Edna F Sell,,11101 Old Arkansas Dr,,,,NC,,,NO,405070100,,74840,,2015-02-05 16:48:56.0,,AddressExists,
,600,351,,Teresa O Syren,,1329 Old Orchard Ct,,,,NC,,,NO,450521904,,74539,,2015-02-05 16:48:56.0,,FieldExists,
,601,351,,Teresa O Syren,,1329 Old Orchard Ct,,,,NC,,,NO,450521904,,74539,,2015-02-05 16:48:56.0,,AddressExists,
,602,353,,Kurt Siebert,,2731 Erringer Rd,,,,NC,,,NO,762564958,,75328,,2015-02-05 16:48:56.0,,FieldExists,
,603,353,,Kurt Siebert,,2731 Erringer Rd,,,,NC,,,NO,762564958,,75328,,2015-02-05 16:48:56.0,,AddressExists,
,604,355,,Calvin N Dascoli,,16510 Highway 59 N,,,,NC,,,NO,508046002,,64593,,2015-02-05 16:48:56.0,,FieldExists,
,605,355,,Calvin N Dascoli,,16510 Highway 59 N,,,,NC,,,NO,508046002,,64593,,2015-02-05 16:48:56.0,,AddressExists,
,606,359,,Debria R Mueller,,1708 N Damen Ave,,,,AL,,YES,,660325378,,36029,,2015-02-05 16:48:56.0,,AddressExists,
,607,36,,Matthew J Hylen,,2108 14th St,,,,FL,,,NO,508522365,,88000,,2015-02-05 16:48:56.0,,FieldExists,
,608,36,,Matthew J Hylen,,2108 14th St,,,,FL,,,NO,508522365,,88000,,2015-02-05 16:48:56.0,,AddressExists,
,609,360,,May K Gaston,,63 Wylde Rd,,,,AL,,YES,,451245374,,36035,,2015-02-05 16:48:56.0,,AddressExists,
,610,362,,Gayle R Adamo,,26624 Evert St,,,,AL,,NO,,504812561,,36116,,2015-02-05 16:48:56.0,,AddressExists,
,611,364,,Emery Z Mellody,,RR 1,,,,AL,,NO,,424013932,,36116,,2015-02-05 16:48:56.0,,AddressExists,
,612,366,,Rob E Kinkel,,134 Church,,,,AL,,NO,,661837677,,36116,,2015-02-05 16:48:56.0,,AddressExists,
,613,368,,Clare V Matuska,,6116 Beach Ave,,,,AL,,NO,,561413686,,36117,,2015-02-05 16:48:56.0,,AddressExists,
,614,370,,Artemus Warren,,501 Van Buren,,,,AL,,NO,,721094619,,36081,,2015-02-05 16:48:56.0,,AddressExists,
,615,372,,Brett Nolan,,Star Rt,,,,AL,,YES,,632000460,,36081,,2015-02-05 16:48:56.0,,AddressExists,
,616,374,,Twila R Schmelz,,3707 E Duma St,,,,AL,,NO,,420973077,,36081,,2015-02-05 16:48:56.0,,AddressExists,
,617,376,,Jerard Q Miller,,RR 1 Box 7,,,,AL,,NO,,428064340,,36081,,2015-02-05 16:48:56.0,,AddressExists,
,618,378,,Milo H Wieden,,Evergreen Ter,,,,AL,,YES,,741900830,,36081,,2015-02-05 16:48:56.0,,AddressExists,
,619,38,,Polly Q Abou-Zamzam PhD,,10212 E 59th St,,,,FL,,,NO,421121336,,87754,,2015-02-05 16:48:56.0,,FieldExists,
,620,38,,Polly Q Abou-Zamzam PhD,,10212 E 59th St,,,,FL,,,NO,421121336,,87754,,2015-02-05 16:48:56.0,,AddressExists,
,621,380,,Biddiy Perry Garner,,199 Downer Ave,,,,AL,,NO,,512549603,,36081,,2015-02-05 16:48:56.0,,AddressExists,
,622,382,,Tricie H Engelgau,,215 Vansant Ave,,,,LA,,,NO,613757439,,54749,,2015-02-05 16:48:56.0,,FieldExists,
,623,382,,Tricie H Engelgau,,215 Vansant Ave,,,,LA,,,NO,613757439,,54749,,2015-02-05 16:48:56.0,,AddressExists,
,624,384,,Charlene V Brooks,,15 Pearson Ave,,,,FL,,,NO,408772633,,55552,,2015-02-05 16:48:56.0,,FieldExists,
,625,384,,Charlene V Brooks,,15 Pearson Ave,,,,FL,,,NO,408772633,,55552,,2015-02-05 16:48:56.0,,AddressExists,
,626,386,,Wendell Sherertz,,40 Gd River St NE,,,,VA,,,NO,670244756,,45270,,2015-02-05 16:48:56.0,,FieldExists,
,627,386,,Wendell Sherertz,,40 Gd River St NE,,,,VA,,,NO,670244756,,45270,,2015-02-05 16:48:56.0,,AddressExists,
,628,388,,Ihab H Kreidler,,329 Sunset Ct,,,,FL,,,NO,616546205,,31697,,2015-02-05 16:48:56.0,,FieldExists,
,629,388,,Ihab H Kreidler,,329 Sunset Ct,,,,FL,,,NO,616546205,,31697,,2015-02-05 16:48:56.0,,AddressExists,
,630,390,,Lanny K Willis,,48 Cobble Pl,,,,FL,,,NO,476525100,,88000,,2015-02-05 16:48:56.0,,FieldExists,
,631,390,,Lanny K Willis,,48 Cobble Pl,,,,FL,,,NO,476525100,,88000,,2015-02-05 16:48:56.0,,AddressExists,
,632,392,,Morris Y Broostrom,,425 S Kenmore Ave Apt 110,,,,FL,,,NO,434851465,,87754,,2015-02-05 16:48:56.0,,FieldExists,
,633,392,,Morris Y Broostrom,,425 S Kenmore Ave Apt 110,,,,FL,,,NO,434851465,,87754,,2015-02-05 16:48:56.0,,AddressExists,
,634,394,,Lila O Cameron,,W103 Fur Farm Rd,,,,FL,,,NO,720215587,,55552,,2015-02-05 16:48:56.0,,FieldExists,
,635,394,,Lila O Cameron,,W103 Fur Farm Rd,,,,FL,,,NO,720215587,,55552,,2015-02-05 16:48:56.0,,AddressExists,
,636,396,,Wallace Y Mounts,,510 E 8th St,,,,FL,,,NO,660324829,,71042,,2015-02-05 16:48:56.0,,FieldExists,
,637,396,,Wallace Y Mounts,,510 E 8th St,,,,FL,,,NO,660324829,,71042,,2015-02-05 16:48:56.0,,AddressExists,
,638,398,,Gretton L Jean,,326 Altoona Pl,,,,FL,,,NO,418380452,,62818,,2015-02-05 16:48:56.0,,FieldExists,
,639,398,,Gretton L Jean,,326 Altoona Pl,,,,FL,,,NO,418380452,,62818,,2015-02-05 16:48:56.0,,AddressExists,
,640,4,,Euel G Shull,,1480 Edinburgh Dr,,,,AL,,NO,,420604087,,36024,,2015-02-05 16:48:56.0,,AddressExists,
,641,40,,Linsey P Laburda,,9633 W Ferris Branch Blvd,,,,FL,,,NO,775313022,,55552,,2015-02-05 16:48:56.0,,FieldExists,
,642,40,,Linsey P Laburda,,9633 W Ferris Branch Blvd,,,,FL,,,NO,775313022,,55552,,2015-02-05 16:48:56.0,,AddressExists,
,643,401,,Jewell X Feringa-Spack,,RR 1 Box 131,,,,TX,,,NO,566527328,,46855,,2015-02-05 16:48:56.0,,FieldExists,
,644,401,,Jewell X Feringa-Spack,,RR 1 Box 131,,,,TX,,,NO,566527328,,46855,,2015-02-05 16:48:56.0,,AddressExists,
,645,403,,Dana W Mamaloff,,914 Howard Ave,,,,TX,,,NO,681448570,,35715,,2015-02-05 16:48:56.0,,FieldExists,
,646,403,,Dana W Mamaloff,,914 Howard Ave,,,,TX,,,NO,681448570,,35715,,2015-02-05 16:48:56.0,,AddressExists,
,647,405,,Leon Y Voigt,,30 Kurchian Ln,,,,TX,,,NO,455731497,,69101,,2015-02-05 16:48:56.0,,FieldExists,
,648,405,,Leon Y Voigt,,30 Kurchian Ln,,,,TX,,,NO,455731497,,69101,,2015-02-05 16:48:56.0,,AddressExists,
,649,407,,Johanne Y Dorsett,,1374 Winn Dr,,,,NC,,,NO,786679454,,74895,,2015-02-05 16:48:56.0,,FieldExists,
,650,407,,Johanne Y Dorsett,,1374 Winn Dr,,,,NC,,,NO,786679454,,74895,,2015-02-05 16:48:56.0,,AddressExists,
,651,409,,Gayle X Bohn,,1222 Rabbs Crossing,,,,NC,,,NO,415167155,,72826,,2015-02-05 16:48:56.0,,FieldExists,
,652,409,,Gayle X Bohn,,1222 Rabbs Crossing,,,,NC,,,NO,415167155,,72826,,2015-02-05 16:48:56.0,,AddressExists,
,653,411,,Freddie Y Pagano,,8115 Depriest Rd,,,,NC,,,NO,678844136,,75291,,2015-02-05 16:48:56.0,,FieldExists,
,654,411,,Freddie Y Pagano,,8115 Depriest Rd,,,,NC,,,NO,678844136,,75291,,2015-02-05 16:48:56.0,,AddressExists,
,655,413,,Felimon L Sun,,6th St,,,,SC,,,NO,630011779,,85728,,2015-02-05 16:48:56.0,,FieldExists,
,656,413,,Felimon L Sun,,6th St,,,,SC,,,NO,630011779,,85728,,2015-02-05 16:48:56.0,,AddressExists,
,657,415,,Lillian X Gospodarek,,2534 N 52 St,,,,AL,,NO,,412442052,,36005,,2015-02-05 16:48:56.0,,AddressExists,
,658,417,,Sheree Zimmerman,,ROUTE 2 BOX 336,,,,AL,,NO,,543247407,,36005,,2015-02-05 16:48:56.0,,AddressExists,
,659,419,,Pual S Thomson,,PO Box 131,,,,AL,,NO,,541871048,,36035,,2015-02-05 16:48:56.0,,AddressExists,
,660,42,,Alirio S Aispuro,,11155 Ruesta Dr,,,,FL,,,NO,648152042,,71042,,2015-02-05 16:48:56.0,,FieldExists,
,661,42,,Alirio S Aispuro,,11155 Ruesta Dr,,,,FL,,,NO,648152042,,71042,,2015-02-05 16:48:56.0,,AddressExists,
,662,420,,Benjamin R Gregg,,2623 Butler Ave,,,,AL,,YES,,640543427,,36052,,2015-02-05 16:48:56.0,,AddressExists,
,663,422,,Ran K Vassar,,34 Andrews St,,,,AL,,NO,,555534076,,36111,,2015-02-05 16:48:56.0,,AddressExists,
,664,424,,Mike D Osnes,,6655 Crystal Springs Dr,,,,AL,,YES,,586860836,,36109,,2015-02-05 16:48:56.0,,AddressExists,
,665,426,,Marinelle H Barnick,,311 E Mason St,,,,AL,,YES,,695653421,,36117,,2015-02-05 16:48:56.0,,AddressExists,
,666,428,,Vincent X Vescovi,,1016 1 St SW,,,,AL,,NO,,424507904,,36078,,2015-02-05 16:48:56.0,,AddressExists,
,667,430,,Bertram A Eastman,,PO Box 365,,,,AL,,NO,,531067466,,36081,,2015-02-05 16:48:56.0,,AddressExists,
,668,432,,Julian R Gaskin,,1 Beacon St,,,,AL,,YES,,650407253,,36081,,2015-02-05 16:48:56.0,,AddressExists,
,669,434,,Bryon K Chalow,,3012 Mira Monte Dr,,,,AL,,NO,,406652454,,36081,,2015-02-05 16:48:56.0,,AddressExists,
,670,436,,Alirio K Cupini-Thomas,,10535 Caddy Ln,,,,AL,,NO,,423847808,,36081,,2015-02-05 16:48:56.0,,AddressExists,
,671,438,,Lars P Paschal,,5716 Andre Ln,,,,AL,,NO,,406602944,,36081,,2015-02-05 16:48:56.0,,AddressExists,
,672,44,,Justin S Raisl,,7347 Lobdell Rd,,,,FL,,,NO,726606015,,62818,,2015-02-05 16:48:56.0,,FieldExists,
,673,44,,Justin S Raisl,,7347 Lobdell Rd,,,,FL,,,NO,726606015,,62818,,2015-02-05 16:48:56.0,,AddressExists,
,674,440,,Mona R Shepherd,,2300 Simpson Ridge Cir,,,,LA,,,NO,517853301,,73333,,2015-02-05 16:48:56.0,,FieldExists,
,675,440,,Mona R Shepherd,,2300 Simpson Ridge Cir,,,,LA,,,NO,517853301,,73333,,2015-02-05 16:48:56.0,,AddressExists,
,676,442,,Augustus Q Victor,,33 Oakland Dr,,,,LA,,,NO,466717800,,54544,,2015-02-05 16:48:56.0,,FieldExists,
,677,442,,Augustus Q Victor,,33 Oakland Dr,,,,LA,,,NO,466717800,,54544,,2015-02-05 16:48:56.0,,AddressExists,
,678,444,,Felimon J Sarvis,,RR 1,,,,OK,,,NO,430634241,,90740,,2015-02-05 16:48:56.0,,FieldExists,
,679,444,,Felimon J Sarvis,,RR 1,,,,OK,,,NO,430634241,,90740,,2015-02-05 16:48:56.0,,AddressExists,
,680,446,,Sharc J Kurfirst,,402 Summit Lake Shore Rd NW,,,,VA,,,NO,741587430,,40513,,2015-02-05 16:48:56.0,,FieldExists,
,681,446,,Sharc J Kurfirst,,402 Summit Lake Shore Rd NW,,,,VA,,,NO,741587430,,40513,,2015-02-05 16:48:56.0,,AddressExists,
,682,448,,Julia Gaskin,,1 Beacon St,,,,FL,,,NO,654148708,,31697,,2015-02-05 16:48:56.0,,FieldExists,
,683,448,,Julia Gaskin,,1 Beacon St,,,,FL,,,NO,654148708,,31697,,2015-02-05 16:48:56.0,,AddressExists,
,684,450,,Bobby D Atkins,,3991 Ballard Ave,,,,FL,,,NO,583262442,,88000,,2015-02-05 16:48:56.0,,FieldExists,
,685,450,,Bobby D Atkins,,3991 Ballard Ave,,,,FL,,,NO,583262442,,88000,,2015-02-05 16:48:56.0,,AddressExists,
,686,452,,Israel J Villemaire,,125 Country Club Blvd,,,,FL,,,NO,712868545,,87754,,2015-02-05 16:48:56.0,,FieldExists,
,687,452,,Israel J Villemaire,,125 Country Club Blvd,,,,FL,,,NO,712868545,,87754,,2015-02-05 16:48:56.0,,AddressExists,
,688,454,,Nancy N Moffet,,7 Adams Rd,,,,FL,,,NO,673506884,,55552,,2015-02-05 16:48:56.0,,FieldExists,
,689,454,,Nancy N Moffet,,7 Adams Rd,,,,FL,,,NO,673506884,,55552,,2015-02-05 16:48:56.0,,AddressExists,
,690,456,,Gail I Huffaker,,4847 Kupreanof St,,,,FL,,,NO,560145098,,95123,,2015-02-05 16:48:56.0,,FieldExists,
,691,456,,Gail I Huffaker,,4847 Kupreanof St,,,,FL,,,NO,560145098,,95123,,2015-02-05 16:48:56.0,,AddressExists,
,692,458,,Marilee H Sparks,,8295 State Route 703,,,,FL,,,NO,633638027,,22018,,2015-02-05 16:48:56.0,,FieldExists,
,693,458,,Marilee H Sparks,,8295 State Route 703,,,,FL,,,NO,633638027,,22018,,2015-02-05 16:48:56.0,,AddressExists,
,694,46,,Garret S Digiorno,,14401 Inkster Rd,,,,TX,,,NO,470041750,,81959,,2015-02-05 16:48:56.0,,FieldExists,
,695,46,,Garret S Digiorno,,14401 Inkster Rd,,,,TX,,,NO,470041750,,81959,,2015-02-05 16:48:56.0,,AddressExists,
,696,461,,Dominique I Elkins,,1055 Mine Hill Rd,,,,TX,,,NO,543377423,,81959,,2015-02-05 16:48:56.0,,FieldExists,
,697,461,,Dominique I Elkins,,1055 Mine Hill Rd,,,,TX,,,NO,543377423,,81959,,2015-02-05 16:48:56.0,,AddressExists,
,698,463,,Daryle V Upham,,243 Baker Cir,,,,TX,,,NO,673458859,,46855,,2015-02-05 16:48:56.0,,FieldExists,
,699,463,,Daryle V Upham,,243 Baker Cir,,,,TX,,,NO,673458859,,46855,,2015-02-05 16:48:56.0,,AddressExists,
,700,465,,Frank M Ovitt,,2831 W Flournoy St,,,,TX,,,NO,708045750,,85662,,2015-02-05 16:48:56.0,,FieldExists,
,701,465,,Frank M Ovitt,,2831 W Flournoy St,,,,TX,,,NO,708045750,,85662,,2015-02-05 16:48:56.0,,AddressExists,
,702,467,,Stacey S Cherry,,262 Tajaucha Dr S,,,,TX,,,NO,500236835,,69101,,2015-02-05 16:48:56.0,,FieldExists,
,703,467,,Stacey S Cherry,,262 Tajaucha Dr S,,,,TX,,,NO,500236835,,69101,,2015-02-05 16:48:56.0,,AddressExists,
,704,469,,Dane S Stephens,,4820 E Kentucky Ave,,,,NC,,,NO,577325368,,74895,,2015-02-05 16:48:56.0,,FieldExists,
,705,469,,Dane S Stephens,,4820 E Kentucky Ave,,,,NC,,,NO,577325368,,74895,,2015-02-05 16:48:56.0,,AddressExists,
,706,471,,Tad L Toney,,Miss St Penitentiary,,,,NC,,,NO,674553700,,74539,,2015-02-05 16:48:56.0,,FieldExists,
,707,471,,Tad L Toney,,Miss St Penitentiary,,,,NC,,,NO,674553700,,74539,,2015-02-05 16:48:56.0,,AddressExists,
,708,473,,Zenobia D Horn,,713 Asbury Rd,,,,NC,,,NO,550085879,,75291,,2015-02-05 16:48:56.0,,FieldExists,
,709,473,,Zenobia D Horn,,713 Asbury Rd,,,,NC,,,NO,550085879,,75291,,2015-02-05 16:48:56.0,,AddressExists,
,710,475,,Tinh H Barrett,,535 Holly Dr,,,,SC,,,NO,470243052,,64593,,2015-02-05 16:48:56.0,,FieldExists,
,711,475,,Tinh H Barrett,,535 Holly Dr,,,,SC,,,NO,470243052,,64593,,2015-02-05 16:48:56.0,,AddressExists,
,712,477,,Clete S Tyrlick,,RR 2,,,,TX,,,NO,650617827,,22303,,2015-02-05 16:48:56.0,,FieldExists,
,713,477,,Clete S Tyrlick,,RR 2,,,,TX,,,NO,650617827,,22303,,2015-02-05 16:48:56.0,,AddressExists,
,714,479,,Denis T Ferrulli,,Road 3 Box 190 A,,,,TX,,,NO,608850882,,46680,,2015-02-05 16:48:56.0,,FieldExists,
,715,479,,Denis T Ferrulli,,Road 3 Box 190 A,,,,TX,,,NO,608850882,,46680,,2015-02-05 16:48:56.0,,AddressExists,
,716,48,,Vivian Vanderwasser,,219 Rowlett Ave,,,,TX,,,NO,408756084,,89251,,2015-02-05 16:48:56.0,,FieldExists,
,717,48,,Vivian Vanderwasser,,219 Rowlett Ave,,,,TX,,,NO,408756084,,89251,,2015-02-05 16:48:56.0,,AddressExists,
,718,481,,Jayne H Blake,,6419 16th St NW,,,,NC,,,NO,417512174,,74895,,2015-02-05 16:48:56.0,,FieldExists,
,719,481,,Jayne H Blake,,6419 16th St NW,,,,NC,,,NO,417512174,,74895,,2015-02-05 16:48:56.0,,AddressExists,
,720,483,,Nena P Fill,,Lttl Brtn Crk R,,,,NC,,,NO,601528360,,74539,,2015-02-05 16:48:56.0,,FieldExists,
,721,483,,Nena P Fill,,Lttl Brtn Crk R,,,,NC,,,NO,601528360,,74539,,2015-02-05 16:48:56.0,,AddressExists,
,722,485,,Al T Wetzler,,2393 State Route 734,,,,NC,,,NO,471663053,,75328,,2015-02-05 16:48:56.0,,FieldExists,
,723,485,,Al T Wetzler,,2393 State Route 734,,,,NC,,,NO,471663053,,75328,,2015-02-05 16:48:56.0,,AddressExists,
,724,487,,Bill I Breeze,,1098 E 22nd St,,,,SC,,,NO,427128343,,85986,,2015-02-05 16:48:56.0,,FieldExists,
,725,487,,Bill I Breeze,,1098 E 22nd St,,,,SC,,,NO,427128343,,85986,,2015-02-05 16:48:56.0,,AddressExists,
,726,50,,Lyn Y Thomas-Squire,,11002 Plumewood Dr,,,,TX,,,NO,714508610,,58121,,2015-02-05 16:48:56.0,,FieldExists,
,727,50,,Lyn Y Thomas-Squire,,11002 Plumewood Dr,,,,TX,,,NO,714508610,,58121,,2015-02-05 16:48:56.0,,AddressExists,
,728,52,,Vera V Eisenberg,,317 Road M56 St,,,,TX,,,NO,570815245,,69101,,2015-02-05 16:48:56.0,,FieldExists,
,729,52,,Vera V Eisenberg,,317 Road M56 St,,,,TX,,,NO,570815245,,69101,,2015-02-05 16:48:56.0,,AddressExists,
,730,54,,Butch A Shabashevich,,650 Jenkins Rd,,,,NC,,,NO,448876507,,74895,,2015-02-05 16:48:56.0,,FieldExists,
,731,54,,Butch A Shabashevich,,650 Jenkins Rd,,,,NC,,,NO,448876507,,74895,,2015-02-05 16:48:56.0,,AddressExists,
,732,56,,Brendan Tracey,,102 S 264th St,,,,NC,,,NO,445288231,,72826,,2015-02-05 16:48:56.0,,FieldExists,
,733,56,,Brendan Tracey,,102 S 264th St,,,,NC,,,NO,445288231,,72826,,2015-02-05 16:48:56.0,,AddressExists,
,734,58,,Robert 'E' Gooden,,11 Kathleen Way,,,,NC,,,NO,700128845,,74539,,2015-02-05 16:48:56.0,,FieldExists,
,735,58,,Robert 'E' Gooden,,11 Kathleen Way,,,,NC,,,NO,700128845,,74539,,2015-02-05 16:48:56.0,,AddressExists,
,736,6,,Reno X Yashar,,2 King,,,,AL,,NO,,785880323,,36043,,2015-02-05 16:48:56.0,,AddressExists,
,737,61,,Catarina W Kramer,,Brookmere Blvd,,,,SC,,,NO,580648153,,64593,,2015-02-05 16:48:56.0,,FieldExists,
,738,61,,Catarina W Kramer,,Brookmere Blvd,,,,SC,,,NO,580648153,,64593,,2015-02-05 16:48:56.0,,AddressExists,
,739,63,,Blair A Woldahl,,RR 2,,,,AL,,NO,,503012731,,36005,,2015-02-05 16:48:56.0,,AddressExists,
,740,65,,Emanual N Falkenburg,,15618 Saddleback Rd,,,,AL,,NO,,454466600,,36010,,2015-02-05 16:48:56.0,,AddressExists,
,741,67,,Kaye P Earp,,2016 Freeman Dr,,,,AL,,NO,,707708806,,36036,,2015-02-05 16:48:56.0,,AddressExists,
,742,69,,Kathy N Maas,,204 Mars Valencia Rd,,,,AL,,NO,,552353288,,36111,,2015-02-05 16:48:56.0,,AddressExists,
,743,71,,Glenn E Leonardo,,152 Jay Cir,,,,AL,,NO,,419442087,,36117,,2015-02-05 16:48:56.0,,AddressExists,
,744,73,,Tinh T Newcomb,,207 N Market St,,,,AL,,NO,,426467475,,36108,,2015-02-05 16:48:56.0,,AddressExists,
,745,75,,Rosanna F Gromatka,,536 E Jarvis Ave,,,,AL,,NO,,584002930,,36064,,2015-02-05 16:48:56.0,,AddressExists,
,746,77,,Emelia H Hollings,,630 S Central St,,,,AL,,YES,,247443487,,36081,,2015-02-05 16:48:56.0,,AddressExists,
,747,79,,Carrie M Rudzats,,RR 1 Box 23,,,,AL,,NO,,418421800,,36081,,2015-02-05 16:48:56.0,,AddressExists,
,748,8,,Shirley F Wing,,36 Muntman Ct,,,,AL,,YES,,570160757,,36106,,2015-02-05 16:48:56.0,,AddressExists,
,749,81,,Melissa O Dunn,,303 E Mann St,,,,GA,,,NO,470786340,,21595,,2015-02-05 16:48:56.0,,FieldExists,
,750,81,,Melissa O Dunn,,303 E Mann St,,,,GA,,,NO,470786340,,21595,,2015-02-05 16:48:56.0,,AddressExists,
,751,83,,Debbi V Shriner,,104 W 6 St,,,,AL,,NO,,455111302,,36079,,2015-02-05 16:48:56.0,,AddressExists,
,752,85,,Detlev G Bolin,,522 Webster,,,,AL,,NO,,244229466,,36081,,2015-02-05 16:48:56.0,,AddressExists,
,753,87,,Lynda K Bergin,,739 Villita Ln,,,,AL,,NO,,423096790,,36081,,2015-02-05 16:48:56.0,,AddressExists,
,754,89,,Toby Y Brill,,5818 Primrose Ave,,,,LA,,,NO,437697524,,54629,,2015-02-05 16:48:56.0,,FieldExists,
,755,89,,Toby Y Brill,,5818 Primrose Ave,,,,LA,,,NO,437697524,,54629,,2015-02-05 16:48:56.0,,AddressExists,
,756,91,,Hernan U Kryl,,Lookout Mountain Rd,,,,GA,,,NO,714064386,,86497,,2015-02-05 16:48:56.0,,FieldExists,
,757,91,,Hernan U Kryl,,Lookout Mountain Rd,,,,GA,,,NO,714064386,,86497,,2015-02-05 16:48:56.0,,AddressExists,
,758,93,,Ami L Birch,,12 Avebury Berwick,,,,VA,,,NO,721322816,,42383,,2015-02-05 16:48:56.0,,FieldExists,
,759,93,,Ami L Birch,,12 Avebury Berwick,,,,VA,,,NO,721322816,,42383,,2015-02-05 16:48:56.0,,AddressExists,
,760,95,,Tibor U Pavlovich,,5492 Denargo Dr,,,,FL,,,NO,663274251,,96430,,2015-02-05 16:48:56.0,,FieldExists,
,761,95,,Tibor U Pavlovich,,5492 Denargo Dr,,,,FL,,,NO,663274251,,96430,,2015-02-05 16:48:56.0,,AddressExists,
,762,97,,Wyman Lehfeldt,,41 Essex Pl,,,,FL,,,NO,756056320,,88000,,2015-02-05 16:48:56.0,,FieldExists,
,763,97,,Wyman Lehfeldt,,41 Essex Pl,,,,FL,,,NO,756056320,,88000,,2015-02-05 16:48:56.0,,AddressExists,
,764,99,,Johanne X Ausmus,,E Highway 30a,,,,FL,,,NO,511180307,,87754,,2015-02-05 16:48:56.0,,FieldExists,
,765,99,,Johanne X Ausmus,,E Highway 30a,,,,FL,,,NO,511180307,,87754,,2015-02-05 16:48:56.0,,AddressExists,